{"type":"FeatureCollection","features":[{"type":"Feature","bbox":[-121.0717683,38.9662348,-121.071381,38.9664031],"geometry":{"type":"Polygon","coordinates":[[[-121.0717338,38.9664031],[-121.0717483,38.9663861],[-121.0717647,38.9663663],[-121.0717683,38.9663493],[-121.0717665,38.9663338],[-121.071761,38.9663197],[-121.0717465,38.9663098],[-121.0714247,38.9662348],[-121.0714065,38.9662348],[-121.0713883,38.9662391],[-121.0713829,38.966256],[-121.071381,38.9662744],[-121.0713829,38.9662886],[-121.0717338,38.9664031]]]},"properties":{"course_id":"black_oak_auburn","course_name":"Black Oak Golf Course","hole_number":1,"feature_type":"tee_box","name":"hole_1_tee_box","feature-color":"#8b7355","is_approximate":true,"source":"osm","@id":"4c858397-8eae-422d-9456-a1a521ed4e41","osm_id":673249822}},{"type":"Feature","bbox":[-121.0748909,38.9662604,-121.0746766,38.9664419],"geometry":{"type":"Polygon","coordinates":[[[-121.0748371,38.9664364],[-121.0748477,38.9664309],[-121.0748549,38.9664255],[-121.0748632,38.96642],[-121.0748719,38.9664136],[-121.0748785,38.9664046],[-121.0748818,38.9663965],[-121.0748855,38.9663885],[-121.074888,38.9663785],[-121.0748909,38.9663669],[-121.0748893,38.9663569],[-121.0748859,38.9663431],[-121.0748768,38.9663241],[-121.0748628,38.9663077],[-121.0748462,38.9662916],[-121.074833,38.9662826],[-121.0748185,38.9662726],[-121.0747986,38.9662659],[-121.0747763,38.9662617],[-121.0747564,38.9662604],[-121.0747382,38.9662636],[-121.0747225,38.9662717],[-121.0747109,38.9662807],[-121.0746964,38.9662958],[-121.0746886,38.9663093],[-121.074684,38.9663161],[-121.0746778,38.9663367],[-121.0746766,38.9663569],[-121.0746782,38.966375],[-121.0746848,38.9663875],[-121.0746927,38.9664023],[-121.0747039,38.9664165],[-121.074715,38.9664248],[-121.0747295,38.9664316],[-121.0747452,38.9664383],[-121.0747622,38.9664399],[-121.0747903,38.9664419],[-121.0748127,38.9664419],[-121.0748243,38.9664403],[-121.0748371,38.9664364]]]},"properties":{"course_id":"black_oak_auburn","course_name":"Black Oak Golf Course","hole_number":1,"feature_type":"green","name":"hole_1_green","feature-color":"#2d6e2d","is_approximate":true,"source":"osm","@id":"fd5a66be-0637-4f30-93b3-fa69e53c10d0","osm_id":673249824}},{"type":"Feature","bbox":[-121.0751139,38.9666252,-121.0748792,38.9669555],"geometry":{"type":"Polygon","coordinates":[[[-121.0749553,38.9669342],[-121.0749522,38.9669448],[-121.0749416,38.9669531],[-121.0749268,38.9669555],[-121.0749152,38.9669531],[-121.0749046,38.9669473],[-121.0748972,38.9669374],[-121.074893,38.9669325],[-121.0748792,38.9666786],[-121.0748835,38.9666679],[-121.0748962,38.9666572],[-121.0749088,38.966649],[-121.0749289,38.9666433],[-121.0750336,38.9666252],[-121.0750547,38.9666268],[-121.0750663,38.9666309],[-121.075079,38.9666375],[-121.0750864,38.9666457],[-121.075098,38.9666564],[-121.0751139,38.9667517],[-121.0751086,38.9667624],[-121.075098,38.9667665],[-121.0749617,38.9667895],[-121.0749501,38.9667953],[-121.0749437,38.9668068],[-121.0749553,38.9669342]]]},"properties":{"course_id":"black_oak_auburn","course_name":"Black Oak Golf Course","hole_number":2,"feature_type":"tee_box","name":"hole_2_tee_box","feature-color":"#8b7355","is_approximate":true,"source":"osm","@id":"5ca72f3c-33ff-4d08-853a-1212bc60c079","osm_id":673254231}},{"type":"Feature","bbox":[-121.0750221,38.9670724,-121.0749291,38.967134],"geometry":{"type":"Polygon","coordinates":[[[-121.0749936,38.9671299],[-121.0749724,38.967134],[-121.0749597,38.967134],[-121.0749471,38.9671299],[-121.0749323,38.9671217],[-121.0749291,38.9671118],[-121.0749291,38.9671028],[-121.0749291,38.9670921],[-121.0749375,38.967079],[-121.0749471,38.9670757],[-121.074965,38.9670732],[-121.0749819,38.9670724],[-121.0749967,38.9670732],[-121.0750062,38.967079],[-121.0750168,38.9670863],[-121.0750221,38.967097],[-121.0750221,38.9671052],[-121.0750158,38.9671159],[-121.0750084,38.967125],[-121.0749936,38.9671299]]]},"properties":{"course_id":"black_oak_auburn","course_name":"Black Oak Golf Course","hole_number":2,"feature_type":"tee_box","name":"hole_2_tee_box_2","feature-color":"#8b7355","is_approximate":true,"source":"osm","@id":"ec712771-ecc8-4e8f-8753-d72d3efa2602","osm_id":673254232}},{"type":"Feature","bbox":[-121.0763445,38.9692794,-121.0761335,38.96946],"geometry":{"type":"Polygon","coordinates":[[[-121.0763258,38.9694445],[-121.0763149,38.9694523],[-121.0762994,38.9694587],[-121.0762835,38.96946],[-121.0762633,38.9694598],[-121.0762476,38.969455],[-121.0762341,38.969451],[-121.0762221,38.9694477],[-121.0762104,38.9694429],[-121.076199,38.9694362],[-121.0761867,38.9694273],[-121.0761782,38.9694189],[-121.0761694,38.9694116],[-121.0761604,38.9694011],[-121.0761552,38.9693942],[-121.0761467,38.9693806],[-121.0761383,38.9693673],[-121.0761336,38.969357],[-121.0761335,38.9693244],[-121.0761378,38.9693122],[-121.0761429,38.9693065],[-121.0761532,38.9692941],[-121.0761662,38.969286],[-121.0762121,38.9692794],[-121.0762352,38.9692834],[-121.0762558,38.969293],[-121.0762682,38.9693018],[-121.0762797,38.9693122],[-121.0762953,38.9693246],[-121.0763068,38.9693385],[-121.0763216,38.9693557],[-121.076333,38.9693713],[-121.0763433,38.9693941],[-121.0763445,38.9694088],[-121.07634,38.9694218],[-121.0763337,38.9694342],[-121.0763258,38.9694445]]]},"properties":{"course_id":"black_oak_auburn","course_name":"Black Oak Golf Course","hole_number":2,"feature_type":"green","name":"hole_2_green","feature-color":"#2d6e2d","is_approximate":true,"source":"osm","@id":"ba5874f9-3178-438f-b40e-9c7619a1894b","osm_id":673254233}},{"type":"Feature","bbox":[-121.0755376,38.9682224,-121.0754614,38.9682941],"geometry":{"type":"Polygon","coordinates":[[[-121.0755351,38.9682707],[-121.0755341,38.9682789],[-121.0755316,38.9682836],[-121.0755251,38.9682875],[-121.0755175,38.9682914],[-121.075513,38.9682926],[-121.075504,38.9682941],[-121.0754975,38.9682938],[-121.0754889,38.9682918],[-121.0754814,38.9682906],[-121.0754764,38.9682875],[-121.0754704,38.9682801],[-121.0754654,38.9682731],[-121.0754649,38.9682649],[-121.0754624,38.968259],[-121.0754614,38.9682477],[-121.0754614,38.9682415],[-121.0754669,38.9682349],[-121.0754734,38.968229],[-121.0754824,38.9682263],[-121.0754884,38.9682243],[-121.075496,38.9682224],[-121.075508,38.9682232],[-121.075516,38.9682232],[-121.0755286,38.9682259],[-121.0755351,38.968229],[-121.0755376,38.968245],[-121.0755371,38.9682551],[-121.0755366,38.9682649],[-121.0755351,38.9682707]]]},"properties":{"course_id":"black_oak_auburn","course_name":"Black Oak Golf Course","hole_number":2,"feature_type":"bunker","name":"hole_2_bunker","feature-color":"#d4b483","is_approximate":true,"source":"osm","@id":"b46e02c3-2357-47e5-9d02-27dc64f9bc90","osm_id":673254235}},{"type":"Feature","bbox":[-121.0754102,38.9682242,-121.0753234,38.9682925],"geometry":{"type":"Polygon","coordinates":[[[-121.0754036,38.968282],[-121.0753936,38.968289],[-121.0753836,38.9682913],[-121.0753725,38.9682925],[-121.075356,38.9682909],[-121.0753459,38.9682902],[-121.0753399,38.9682855],[-121.0753354,38.96828],[-121.0753289,38.9682753],[-121.0753259,38.9682687],[-121.0753254,38.968259],[-121.0753234,38.9682457],[-121.0753254,38.9682387],[-121.0753299,38.9682359],[-121.0753359,38.9682297],[-121.0753454,38.9682266],[-121.0753545,38.9682246],[-121.0753645,38.9682242],[-121.075375,38.9682242],[-121.0753851,38.9682258],[-121.0753961,38.9682309],[-121.0754041,38.9682363],[-121.0754077,38.9682418],[-121.0754087,38.9682593],[-121.0754102,38.9682683],[-121.0754087,38.9682761],[-121.0754036,38.968282]]]},"properties":{"course_id":"black_oak_auburn","course_name":"Black Oak Golf Course","hole_number":2,"feature_type":"bunker","name":"hole_2_bunker_2","feature-color":"#d4b483","is_approximate":true,"source":"osm","@id":"d545f852-7080-469c-a97a-40ceb9a1b1f0","osm_id":673254236}},{"type":"Feature","bbox":[-121.07163,38.9669576,-121.0715316,38.9670372],"geometry":{"type":"Polygon","coordinates":[[[-121.0716287,38.96701],[-121.07163,38.9669848],[-121.0716145,38.9669667],[-121.0715886,38.9669576],[-121.0715653,38.9669597],[-121.071551,38.9669647],[-121.0715407,38.9669727],[-121.0715316,38.9669909],[-121.0715316,38.967007],[-121.0715368,38.9670191],[-121.0715497,38.9670301],[-121.071564,38.9670372],[-121.0715912,38.9670372],[-121.0716106,38.9670312],[-121.0716287,38.96701]]]},"properties":{"course_id":"black_oak_auburn","course_name":"Black Oak Golf Course","hole_number":3,"feature_type":"bunker","name":"hole_3_bunker","feature-color":"#d4b483","is_approximate":true,"source":"osm","@id":"658c87eb-6858-465a-aefc-a3763b0b9e96","osm_id":676448101}},{"type":"Feature","bbox":[-121.0717955,38.9667693,-121.0716719,38.9668456],"geometry":{"type":"Polygon","coordinates":[[[-121.0717901,38.9668297],[-121.0717792,38.9668395],[-121.071761,38.9668452],[-121.0717359,38.9668456],[-121.0717233,38.9668431],[-121.0717117,38.9668406],[-121.0716996,38.9668361],[-121.0716925,38.9668316],[-121.0716796,38.9668215],[-121.0716749,38.9668122],[-121.0716719,38.9668037],[-121.0716796,38.9667952],[-121.0716913,38.9667875],[-121.0717014,38.9667799],[-121.0717094,38.9667742],[-121.0717277,38.9667701],[-121.0717438,38.9667693],[-121.0717692,38.9667732],[-121.0717822,38.9667809],[-121.0717914,38.9667903],[-121.071794,38.9667978],[-121.0717946,38.9668057],[-121.0717955,38.9668177],[-121.0717901,38.9668297]]]},"properties":{"course_id":"black_oak_auburn","course_name":"Black Oak Golf Course","hole_number":3,"feature_type":"bunker","name":"hole_3_bunker_2","feature-color":"#d4b483","is_approximate":true,"source":"osm","@id":"b7096ae6-32c8-4b85-a21c-bf877fd2a9aa","osm_id":676448103}},{"type":"Feature","bbox":[-121.0716868,38.9667627,-121.0714335,38.966925],"geometry":{"type":"Polygon","coordinates":[[[-121.0715361,38.9669173],[-121.0715062,38.9669102],[-121.0714762,38.9668982],[-121.0714562,38.966882],[-121.0714435,38.9668679],[-121.0714399,38.9668516],[-121.0714335,38.9668368],[-121.0714353,38.9668135],[-121.0714408,38.9667959],[-121.0714517,38.9667867],[-121.0714662,38.9667768],[-121.0714971,38.9667676],[-121.0715316,38.9667627],[-121.0715561,38.9667641],[-121.0715842,38.9667683],[-121.0716087,38.9667775],[-121.0716251,38.9667973],[-121.0716396,38.9668156],[-121.0716496,38.9668311],[-121.0716678,38.9668467],[-121.0716805,38.9668573],[-121.0716868,38.9668749],[-121.0716859,38.9668926],[-121.0716696,38.9669102],[-121.0716496,38.9669187],[-121.0716215,38.966925],[-121.0715997,38.9669208],[-121.071577,38.9669173],[-121.0715361,38.9669173]]]},"properties":{"course_id":"black_oak_auburn","course_name":"Black Oak Golf Course","hole_number":3,"feature_type":"green","name":"hole_3_green","feature-color":"#2d6e2d","is_approximate":true,"source":"osm","@id":"bb10a08c-3f9f-4ecb-b3da-a7ec20c1b538","osm_id":676448105}},{"type":"Feature","bbox":[-121.069678,38.9662287,-121.0694875,38.9663954],"geometry":{"type":"Polygon","coordinates":[[[-121.069678,38.966328],[-121.0696772,38.966346],[-121.069666,38.9663635],[-121.0696574,38.9663716],[-121.0696384,38.9663812],[-121.0696122,38.9663876],[-121.0695958,38.9663919],[-121.06957,38.9663954],[-121.0695473,38.9663925],[-121.069526,38.9663821],[-121.0695136,38.966371],[-121.0695074,38.966363],[-121.0694983,38.9663513],[-121.0694909,38.9663391],[-121.0694875,38.9663144],[-121.0694912,38.9662848],[-121.0695043,38.9662665],[-121.0695163,38.9662511],[-121.0695267,38.9662415],[-121.0695305,38.966238],[-121.0695484,38.9662322],[-121.0695809,38.9662287],[-121.069607,38.9662345],[-121.0696309,38.9662447],[-121.0696537,38.9662732],[-121.0696698,38.9663005],[-121.069678,38.966328]]]},"properties":{"course_id":"black_oak_auburn","course_name":"Black Oak Golf Course","hole_number":4,"feature_type":"green","name":"hole_4_green","feature-color":"#2d6e2d","is_approximate":true,"source":"osm","@id":"d1c3f3b1-bc59-4753-8dbd-0716acf166ae","osm_id":676448498}},{"type":"Feature","bbox":[-121.0700296,38.9659984,-121.0696242,38.9664355],"geometry":{"type":"Polygon","coordinates":[[[-121.0700296,38.9663825],[-121.0700232,38.9664073],[-121.0700088,38.9664181],[-121.0700024,38.9664227],[-121.0699982,38.9664164],[-121.0699769,38.9664218],[-121.069979,38.9664293],[-121.0699545,38.9664355],[-121.0699284,38.9664355],[-121.0699049,38.9664355],[-121.0698826,38.9664264],[-121.069857,38.9664082],[-121.0698298,38.9663908],[-121.0698128,38.9663758],[-121.0697872,38.9663493],[-121.0697424,38.9663091],[-121.0697014,38.9662524],[-121.0696444,38.9661542],[-121.06963,38.9661223],[-121.0696295,38.966107],[-121.0696332,38.966097],[-121.0696295,38.9660813],[-121.0696242,38.9660552],[-121.0696268,38.9660428],[-121.0696348,38.9660374],[-121.0697408,38.9660254],[-121.069857,38.9660109],[-121.0699438,38.9660005],[-121.0699699,38.9659984],[-121.0699854,38.9660071],[-121.0699875,38.9660129],[-121.0699955,38.9660287],[-121.0700078,38.9660457],[-121.0700216,38.9661198],[-121.0700275,38.9661654],[-121.0700286,38.9662433],[-121.0700296,38.9663825]]]},"properties":{"course_id":"black_oak_auburn","course_name":"Black Oak Golf Course","hole_number":4,"feature_type":"water","name":"hole_4_water","feature-color":"#2255cc","is_approximate":true,"source":"osm","@id":"2522a329-1d79-4b0d-9535-46cae20c4f0c","osm_id":676448499}},{"type":"Feature","bbox":[-121.0692693,38.9657535,-121.0689493,38.9660289],"geometry":{"type":"Polygon","coordinates":[[[-121.0692677,38.965994],[-121.0692693,38.9660064],[-121.0692525,38.9660236],[-121.0692252,38.9660289],[-121.0692085,38.9660283],[-121.0691948,38.9660218],[-121.0690648,38.9659036],[-121.0690063,38.9658569],[-121.0689629,38.9658173],[-121.0689493,38.965799],[-121.0689576,38.9657795],[-121.0689774,38.9657647],[-121.0689971,38.9657558],[-121.0690253,38.9657535],[-121.0690542,38.9657629],[-121.0691172,38.9658392],[-121.0691492,38.9658823],[-121.0691849,38.9659219],[-121.0692092,38.965942],[-121.0692351,38.9659574],[-121.0692579,38.9659763],[-121.0692677,38.965994]]]},"properties":{"course_id":"black_oak_auburn","course_name":"Black Oak Golf Course","hole_number":5,"feature_type":"tee_box","name":"hole_5_tee_box","feature-color":"#8b7355","is_approximate":true,"source":"osm","@id":"2563fb08-e906-456b-9ffc-5c1444ea6873","osm_id":676451702}},{"type":"Feature","bbox":[-121.0663603,38.9646932,-121.06626,38.9647847],"geometry":{"type":"Polygon","coordinates":[[[-121.0663487,38.964717],[-121.0663346,38.9647003],[-121.066318,38.9646932],[-121.0662923,38.9646996],[-121.0662724,38.9647132],[-121.06626,38.9647209],[-121.06626,38.9647396],[-121.0662674,38.964759],[-121.0662824,38.9647731],[-121.0662989,38.9647802],[-121.0663197,38.9647847],[-121.0663396,38.9647815],[-121.0663421,38.9647706],[-121.0663429,38.9647609],[-121.0663446,38.9647544],[-121.0663545,38.964748],[-121.0663603,38.964739],[-121.0663562,38.9647299],[-121.0663487,38.964717]]]},"properties":{"course_id":"black_oak_auburn","course_name":"Black Oak Golf Course","hole_number":5,"feature_type":"bunker","name":"hole_5_bunker_2","feature-color":"#d4b483","is_approximate":true,"source":"osm","@id":"7fd59b2e-c843-4c14-9ca4-3aabaf4c4341","osm_id":676451722}},{"type":"Feature","bbox":[-121.0662811,38.9645863,-121.06599,38.964741],"geometry":{"type":"Polygon","coordinates":[[[-121.0662562,38.9646978],[-121.0662272,38.9647165],[-121.0662073,38.9647236],[-121.0661832,38.9647327],[-121.0661451,38.964741],[-121.0661152,38.9647385],[-121.0660771,38.9647314],[-121.0660373,38.9647165],[-121.0660107,38.9646978],[-121.0659983,38.9646849],[-121.06599,38.9646572],[-121.0659966,38.964634],[-121.0660066,38.9646108],[-121.0660331,38.9645953],[-121.0660597,38.9645889],[-121.0660912,38.9645863],[-121.0661509,38.9645979],[-121.0661973,38.9646024],[-121.0662222,38.9646043],[-121.0662382,38.964607],[-121.066262,38.9646218],[-121.0662761,38.9646347],[-121.0662811,38.9646514],[-121.0662769,38.9646753],[-121.0662562,38.9646978]]]},"properties":{"course_id":"black_oak_auburn","course_name":"Black Oak Golf Course","hole_number":5,"feature_type":"green","name":"hole_5_green","feature-color":"#2d6e2d","is_approximate":true,"source":"osm","@id":"e2ee8dea-c701-4388-9b0e-59fd976b657a","osm_id":676451724}},{"type":"Feature","bbox":[-121.0661441,38.9643355,-121.0660072,38.9644522],"geometry":{"type":"Polygon","coordinates":[[[-121.0661341,38.9644367],[-121.0661416,38.9644077],[-121.0661441,38.9643806],[-121.0661358,38.9643484],[-121.0661167,38.9643355],[-121.0660727,38.9643361],[-121.0660404,38.9643361],[-121.066023,38.96434],[-121.0660114,38.9643484],[-121.0660072,38.9643664],[-121.0660163,38.9644316],[-121.0660255,38.9644419],[-121.066042,38.9644496],[-121.066057,38.9644509],[-121.0660819,38.9644522],[-121.0660984,38.9644522],[-121.0661167,38.964447],[-121.0661341,38.9644367]]]},"properties":{"course_id":"black_oak_auburn","course_name":"Black Oak Golf Course","hole_number":6,"feature_type":"tee_box","name":"hole_6_tee_box","feature-color":"#8b7355","is_approximate":true,"source":"osm","@id":"512cf3b6-e9aa-4bf3-b670-e70a5bf72e50","osm_id":676451726}},{"type":"Feature","bbox":[-121.0659523,38.9643586,-121.0657873,38.9644714],"geometry":{"type":"Polygon","coordinates":[[[-121.065949,38.9644495],[-121.065939,38.9644572],[-121.0659125,38.9644637],[-121.0658818,38.9644643],[-121.0658462,38.9644663],[-121.0658254,38.9644695],[-121.065803,38.9644714],[-121.0657931,38.9644663],[-121.0657873,38.9644553],[-121.0657889,38.964445],[-121.0657964,38.9644327],[-121.0658171,38.9644282],[-121.0658321,38.9644231],[-121.065837,38.9644031],[-121.065842,38.9643915],[-121.0658486,38.9643702],[-121.0658644,38.9643624],[-121.0658959,38.9643586],[-121.0659183,38.9643586],[-121.0659366,38.9643624],[-121.065949,38.9643766],[-121.0659515,38.9643992],[-121.0659523,38.9644243],[-121.065949,38.9644495]]]},"properties":{"course_id":"black_oak_auburn","course_name":"Black Oak Golf Course","hole_number":6,"feature_type":"tee_box","name":"hole_6_tee_box_2","feature-color":"#8b7355","is_approximate":true,"source":"osm","@id":"61d74dd1-ec6e-4c0d-a5a8-2d8eeb9dd044","osm_id":676451727}},{"type":"Feature","bbox":[-121.0666033,38.9642527,-121.0664905,38.9643224],"geometry":{"type":"Polygon","coordinates":[[[-121.0664938,38.9642914],[-121.0665088,38.9643127],[-121.0665336,38.9643204],[-121.0665535,38.9643224],[-121.0665867,38.9643179],[-121.0665992,38.9643063],[-121.0666033,38.9642876],[-121.0665967,38.9642689],[-121.0665743,38.9642592],[-121.0665502,38.9642527],[-121.0665237,38.9642553],[-121.0664972,38.9642682],[-121.0664905,38.9642792],[-121.0664938,38.9642914]]]},"properties":{"course_id":"black_oak_auburn","course_name":"Black Oak Golf Course","hole_number":6,"feature_type":"tee_box","name":"hole_6_tee_box_3","feature-color":"#8b7355","is_approximate":true,"source":"osm","@id":"12b8af10-2405-445b-835a-9d7e1c80010e","osm_id":676451728}},{"type":"Feature","bbox":[-121.0690161,38.962298,-121.0662746,38.9645671],"geometry":{"type":"Polygon","coordinates":[[[-121.0678811,38.9645564],[-121.0677792,38.9645671],[-121.0677133,38.9645612],[-121.0676644,38.9645573],[-121.0675433,38.9645502],[-121.0673675,38.9645315],[-121.0672912,38.9645231],[-121.0671871,38.9645163],[-121.0670723,38.9645102],[-121.0669781,38.9645141],[-121.0669007,38.9645211],[-121.0668171,38.9645159],[-121.0667488,38.9645073],[-121.0666551,38.964504],[-121.066591,38.964499],[-121.0665478,38.9644895],[-121.0664846,38.9644827],[-121.0664026,38.9644732],[-121.0663199,38.9644526],[-121.0662854,38.9644246],[-121.0662746,38.9643978],[-121.0662818,38.9643687],[-121.0662947,38.9643363],[-121.0663156,38.9643128],[-121.06634,38.9643027],[-121.0663645,38.9642988],[-121.0663968,38.9642983],[-121.0664263,38.9643072],[-121.0664464,38.9643245],[-121.0664687,38.9643497],[-121.0664881,38.9643642],[-121.0665155,38.9643749],[-121.066573,38.9643754],[-121.0666542,38.9643558],[-121.0667419,38.9643212],[-121.0668548,38.9642983],[-121.0669354,38.9643061],[-121.0670065,38.9643312],[-121.0670605,38.9643642],[-121.0671129,38.9643955],[-121.0671424,38.9644039],[-121.0671712,38.9644017],[-121.0672963,38.9643715],[-121.067379,38.9643581],[-121.0675831,38.964258],[-121.0676191,38.9642474],[-121.0677298,38.9642027],[-121.0678183,38.9641753],[-121.0679196,38.9641188],[-121.0680613,38.964035],[-121.0681281,38.9639735],[-121.0682712,38.9638499],[-121.0683704,38.9637392],[-121.0684855,38.9636179],[-121.0685228,38.9635452],[-121.0685336,38.9634547],[-121.0685264,38.9632663],[-121.0685171,38.9631852],[-121.0684991,38.9630248],[-121.0684898,38.9629107],[-121.0684991,38.9628353],[-121.0685264,38.9627151],[-121.0685545,38.9626005],[-121.0685789,38.9625166],[-121.0685854,38.9624663],[-121.0686012,38.9624356],[-121.0686185,38.9624121],[-121.0686415,38.9624003],[-121.0686695,38.9623992],[-121.0687148,38.9624093],[-121.0687371,38.9624026],[-121.0687659,38.9623841],[-121.0688104,38.9623377],[-121.0688277,38.962317],[-121.0688507,38.9623031],[-121.0688924,38.962298],[-121.0689442,38.9622997],[-121.0689765,38.9623182],[-121.0689931,38.9623545],[-121.0689701,38.9623975],[-121.0689298,38.9624708],[-121.0688931,38.9625809],[-121.0688874,38.9626139],[-121.0688902,38.9626379],[-121.0689053,38.9626513],[-121.068947,38.9626681],[-121.0689952,38.9627162],[-121.0690161,38.9627721],[-121.0690046,38.962927],[-121.0689844,38.9630678],[-121.0689686,38.9631388],[-121.0689506,38.9631835],[-121.0689133,38.9632456],[-121.0689017,38.9632719],[-121.0689068,38.9633384],[-121.0689032,38.9633814],[-121.0688809,38.9634502],[-121.0688557,38.9635011],[-121.0688047,38.9636079],[-121.0687731,38.9636934],[-121.0687256,38.9638231],[-121.0686947,38.9639243],[-121.0686717,38.9640109],[-121.0686408,38.9641283],[-121.0686249,38.96422],[-121.068589,38.9642714],[-121.068543,38.9643083],[-121.0684919,38.9643497],[-121.0684107,38.9643916],[-121.0683438,38.9644213],[-121.068277,38.9644447],[-121.0681964,38.9644688],[-121.0680864,38.9644973],[-121.0679973,38.9645202],[-121.0679556,38.9645336],[-121.0678811,38.9645564]]]},"properties":{"course_id":"black_oak_auburn","course_name":"Black Oak Golf Course","hole_number":6,"feature_type":"fairway","name":"hole_6_fairway","feature-color":"#4a7c3f","is_approximate":true,"source":"osm","@id":"006e5048-d7f7-4fa7-bd9f-dba2d553d0b3","osm_id":676451729}},{"type":"Feature","bbox":[-121.0683848,38.9645581,-121.0679322,38.9648461],"geometry":{"type":"Polygon","coordinates":[[[-121.0683272,38.9645594],[-121.0683464,38.9645757],[-121.0683516,38.9646043],[-121.0683516,38.9646532],[-121.0683499,38.9646817],[-121.0683604,38.9647171],[-121.0683744,38.9647551],[-121.0683848,38.9647972],[-121.0683761,38.9648244],[-121.0683376,38.9648421],[-121.0682625,38.9648461],[-121.0682083,38.9648353],[-121.0681437,38.9648203],[-121.0680842,38.9648108],[-121.068044,38.9648163],[-121.0680003,38.9648339],[-121.0679532,38.9648298],[-121.0679322,38.9647836],[-121.0679374,38.9647442],[-121.0679654,38.9647116],[-121.0679881,38.9646885],[-121.0680336,38.9646573],[-121.0682782,38.9645581],[-121.0683027,38.9645594],[-121.0683272,38.9645594]]]},"properties":{"course_id":"black_oak_auburn","course_name":"Black Oak Golf Course","hole_number":5,"feature_type":"water","name":"hole_5_water","feature-color":"#2255cc","is_approximate":true,"source":"osm","@id":"dc92685f-0156-45ef-b381-bb6555376486","osm_id":676451730}},{"type":"Feature","bbox":[-121.0691167,38.9621144,-121.0686573,38.9622395],"geometry":{"type":"Polygon","coordinates":[[[-121.0691006,38.9622339],[-121.0691123,38.962227],[-121.0691167,38.9622088],[-121.0690758,38.9621975],[-121.0690509,38.9622122],[-121.0690216,38.9622111],[-121.068985,38.9622179],[-121.0689236,38.9622134],[-121.0688899,38.962202],[-121.068808,38.9621701],[-121.0687656,38.9621542],[-121.0687231,38.9621337],[-121.0686997,38.9621167],[-121.0686705,38.9621144],[-121.0686573,38.9621372],[-121.0686675,38.9621497],[-121.0686895,38.9621554],[-121.0687114,38.9621554],[-121.0687261,38.962161],[-121.0687948,38.9621906],[-121.0688534,38.9622122],[-121.0689002,38.9622259],[-121.0689441,38.9622373],[-121.0689997,38.9622384],[-121.0690553,38.9622395],[-121.0691006,38.9622339]]]},"properties":{"course_id":"black_oak_auburn","course_name":"Black Oak Golf Course","hole_number":6,"feature_type":"water","name":"hole_6_water","feature-color":"#2255cc","is_approximate":true,"source":"osm","@id":"d7ddd485-cc77-44cf-b0bc-d38cd0a338b5","osm_id":676451731}},{"type":"Feature","bbox":[-121.06875,38.9622798,-121.0686751,38.9623372],"geometry":{"type":"Polygon","coordinates":[[[-121.06875,38.9622925],[-121.0687469,38.9623141],[-121.0687336,38.9623348],[-121.068712,38.9623372],[-121.0686936,38.9623332],[-121.0686772,38.9623197],[-121.0686751,38.9623029],[-121.0686833,38.9622925],[-121.0686936,38.962283],[-121.068712,38.9622798],[-121.0687305,38.9622806],[-121.06875,38.9622925]]]},"properties":{"course_id":"black_oak_auburn","course_name":"Black Oak Golf Course","hole_number":6,"feature_type":"bunker","name":"hole_6_bunker","feature-color":"#d4b483","is_approximate":true,"source":"osm","@id":"6ce2b782-3a81-470f-9f47-4ee2d96f9f64","osm_id":676451732}},{"type":"Feature","bbox":[-121.0689147,38.9620342,-121.068848,38.9620941],"geometry":{"type":"Polygon","coordinates":[[[-121.0688952,38.9620342],[-121.0689096,38.9620478],[-121.0689147,38.962063],[-121.0689126,38.9620741],[-121.0689044,38.9620861],[-121.0688942,38.9620941],[-121.0688808,38.9620917],[-121.0688665,38.9620893],[-121.0688552,38.9620781],[-121.068848,38.9620606],[-121.0688521,38.9620486],[-121.0688726,38.9620366],[-121.0688952,38.9620342]]]},"properties":{"course_id":"black_oak_auburn","course_name":"Black Oak Golf Course","hole_number":6,"feature_type":"bunker","name":"hole_6_bunker_2","feature-color":"#d4b483","is_approximate":true,"source":"osm","@id":"30b18433-e85a-4e1d-b111-c9b857079e39","osm_id":676451733}},{"type":"Feature","bbox":[-121.0689726,38.9617336,-121.0686956,38.9620207],"geometry":{"type":"Polygon","coordinates":[[[-121.0689726,38.9618357],[-121.0689726,38.9618668],[-121.0689582,38.9618891],[-121.0689428,38.9619066],[-121.0689161,38.961921],[-121.0688833,38.9619497],[-121.0688402,38.961992],[-121.0688043,38.9620167],[-121.0687756,38.9620207],[-121.0687469,38.9620175],[-121.0687274,38.9619984],[-121.0687213,38.9619585],[-121.0687192,38.961909],[-121.0687069,38.9618644],[-121.0686987,38.9618412],[-121.0686956,38.9618213],[-121.0686966,38.9618014],[-121.0687028,38.9617774],[-121.0687141,38.9617615],[-121.0687315,38.9617471],[-121.0687397,38.9617392],[-121.0687623,38.961736],[-121.068791,38.9617344],[-121.0688146,38.9617336],[-121.0688597,38.9617416],[-121.0688864,38.9617503],[-121.0689141,38.9617655],[-121.0689428,38.961787],[-121.0689633,38.9618109],[-121.0689726,38.9618357]]]},"properties":{"course_id":"black_oak_auburn","course_name":"Black Oak Golf Course","hole_number":6,"feature_type":"green","name":"hole_6_green","feature-color":"#2d6e2d","is_approximate":true,"source":"osm","@id":"677a88f7-080f-4a3e-828a-f43af1b55da5","osm_id":676451734}},{"type":"Feature","bbox":[-121.0700955,38.9620105,-121.0690486,38.9633137],"geometry":{"type":"Polygon","coordinates":[[[-121.0693475,38.9632838],[-121.069323,38.9632811],[-121.0692706,38.963258],[-121.0691832,38.9632675],[-121.0691168,38.9632906],[-121.0690783,38.9633083],[-121.0690609,38.9633137],[-121.0690486,38.9632933],[-121.0690871,38.9632756],[-121.06915,38.9632498],[-121.0691885,38.9632389],[-121.0692496,38.9632335],[-121.0692933,38.9632376],[-121.069323,38.9632403],[-121.0693457,38.9631792],[-121.069344,38.9631316],[-121.0693055,38.96308],[-121.0692619,38.9630283],[-121.0692321,38.9629998],[-121.0692112,38.9629332],[-121.0692077,38.9628802],[-121.0691989,38.9627932],[-121.0691937,38.9627226],[-121.0691587,38.9626587],[-121.0691483,38.9625799],[-121.06915,38.9624549],[-121.0691832,38.9623665],[-121.0691954,38.9623149],[-121.0692217,38.9622836],[-121.0692793,38.9622918],[-121.0693265,38.9622809],[-121.0693388,38.9622469],[-121.0693807,38.9621844],[-121.0694087,38.9621586],[-121.0694611,38.9621409],[-121.0695275,38.9621097],[-121.0697617,38.9620336],[-121.0698963,38.9620105],[-121.0699802,38.9620241],[-121.0700378,38.9620363],[-121.0700675,38.9620676],[-121.0700955,38.9621382],[-121.0700833,38.9622034],[-121.0700483,38.9622605],[-121.0700029,38.9623217],[-121.0699644,38.9623584],[-121.0699277,38.9623964],[-121.0699137,38.9624114],[-121.0698893,38.9624317],[-121.0698246,38.9624956],[-121.069739,38.9625704],[-121.0696691,38.9626193],[-121.0696254,38.9626492],[-121.0695764,38.9626641],[-121.0695048,38.9626913],[-121.0694279,38.9627117],[-121.0693947,38.9627321],[-121.0693667,38.9627756],[-121.069323,38.9628095],[-121.0692828,38.9628258],[-121.0692479,38.9628598],[-121.0692322,38.9628925],[-121.0692322,38.9629363],[-121.0692481,38.9629811],[-121.0692837,38.9630211],[-121.0693143,38.9630563],[-121.0693364,38.963082],[-121.0693572,38.9631182],[-121.0693645,38.9631563],[-121.0693609,38.9632087],[-121.0693584,38.9632459],[-121.0693475,38.9632838]]]},"properties":{"course_id":"black_oak_auburn","course_name":"Black Oak Golf Course","hole_number":9,"feature_type":"water","name":"hole_9_water","feature-color":"#2255cc","is_approximate":true,"source":"osm","@id":"a227ec8e-6e0f-41d2-85e5-4047e5c61e74","osm_id":676452515}},{"type":"Feature","bbox":[-121.0685185,38.9612151,-121.0684354,38.9613531],"geometry":{"type":"Polygon","coordinates":[[[-121.0684932,38.9612272],[-121.0684986,38.9612361],[-121.0685173,38.9613311],[-121.0685185,38.9613414],[-121.0685143,38.9613499],[-121.0685011,38.9613531],[-121.0684866,38.9613517],[-121.068471,38.9613452],[-121.0684631,38.9613368],[-121.0684354,38.9612502],[-121.068436,38.9612371],[-121.0684403,38.9612277],[-121.0684481,38.9612183],[-121.0684559,38.961216],[-121.0684673,38.9612151],[-121.0684794,38.9612183],[-121.0684932,38.9612272]]]},"properties":{"course_id":"black_oak_auburn","course_name":"Black Oak Golf Course","hole_number":7,"feature_type":"tee_box","name":"hole_7_tee_box","feature-color":"#8b7355","is_approximate":true,"source":"osm","@id":"902c76e8-a547-4546-9dc0-e5e1089ed67e","osm_id":676452516}},{"type":"Feature","bbox":[-121.0683835,38.961243,-121.0683064,38.9613825],"geometry":{"type":"Polygon","coordinates":[[[-121.0683835,38.9613582],[-121.0683756,38.9613713],[-121.0683636,38.9613807],[-121.0683504,38.9613825],[-121.0683401,38.9613807],[-121.0683335,38.961375],[-121.0683064,38.961258],[-121.0683124,38.9612473],[-121.0683245,38.961243],[-121.0683383,38.961244],[-121.0683461,38.9612454],[-121.0683534,38.9612519],[-121.068357,38.961258],[-121.0683835,38.9613582]]]},"properties":{"course_id":"black_oak_auburn","course_name":"Black Oak Golf Course","hole_number":7,"feature_type":"tee_box","name":"hole_7_tee_box_2","feature-color":"#8b7355","is_approximate":true,"source":"osm","@id":"9f8a8a0c-5496-4bc8-a83a-dc76cdb45485","osm_id":676452517}},{"type":"Feature","bbox":[-121.0684992,38.9609671,-121.0684047,38.9611084],"geometry":{"type":"Polygon","coordinates":[[[-121.0684685,38.9610944],[-121.0684559,38.9611075],[-121.068439,38.9611084],[-121.068421,38.9611075],[-121.0684077,38.9610986],[-121.0684047,38.961085],[-121.0684096,38.961063],[-121.068436,38.9609797],[-121.0684421,38.9609703],[-121.0684529,38.960968],[-121.0684673,38.9609671],[-121.0684854,38.9609727],[-121.0684944,38.960983],[-121.0684992,38.9609919],[-121.068498,38.9610078],[-121.0684854,38.9610537],[-121.0684782,38.9610808],[-121.0684685,38.9610944]]]},"properties":{"course_id":"black_oak_auburn","course_name":"Black Oak Golf Course","hole_number":7,"feature_type":"tee_box","name":"hole_7_tee_box_3","feature-color":"#8b7355","is_approximate":true,"source":"osm","@id":"1f7ace93-6d29-4d0e-99de-d9e3de9cc19a","osm_id":676452518}},{"type":"Feature","bbox":[-121.0703801,38.9612536,-121.0702514,38.9613431],"geometry":{"type":"Polygon","coordinates":[[[-121.0703801,38.9612855],[-121.0703778,38.9613103],[-121.0703596,38.9613315],[-121.0703254,38.9613431],[-121.0702958,38.9613431],[-121.0702742,38.9613315],[-121.0702628,38.9613253],[-121.070256,38.9613204],[-121.0702525,38.9613121],[-121.0702548,38.9612997],[-121.0702514,38.961282],[-121.0702662,38.961266],[-121.0702844,38.9612589],[-121.0703026,38.9612536],[-121.0703402,38.9612598],[-121.0703641,38.961266],[-121.0703801,38.9612855]]]},"properties":{"course_id":"black_oak_auburn","course_name":"Black Oak Golf Course","hole_number":7,"feature_type":"bunker","name":"hole_7_bunker","feature-color":"#d4b483","is_approximate":true,"source":"osm","@id":"f705439a-e020-434c-a788-bba5a11a913f","osm_id":676452521}},{"type":"Feature","bbox":[-121.0706301,38.9611098,-121.0703,38.9613365],"geometry":{"type":"Polygon","coordinates":[[[-121.0706273,38.9612586],[-121.0706133,38.9612825],[-121.0705848,38.961306],[-121.0705523,38.9613247],[-121.0705159,38.9613356],[-121.0704891,38.9613365],[-121.0704723,38.9613334],[-121.0704538,38.961323],[-121.0704259,38.9612999],[-121.0704018,38.9612717],[-121.0703788,38.9612569],[-121.0703655,38.9612488],[-121.0703481,38.9612382],[-121.0703251,38.9612299],[-121.0703044,38.9612081],[-121.0703,38.9611803],[-121.0703089,38.9611572],[-121.0703341,38.9611337],[-121.0703615,38.961122],[-121.0703987,38.9611157],[-121.0704107,38.9611137],[-121.0704611,38.9611098],[-121.0705064,38.9611102],[-121.070535,38.9611137],[-121.0705758,38.9611376],[-121.0705982,38.9611572],[-121.07062,38.961179],[-121.0706301,38.9612038],[-121.0706295,38.9612364],[-121.0706273,38.9612586]]]},"properties":{"course_id":"black_oak_auburn","course_name":"Black Oak Golf Course","hole_number":7,"feature_type":"green","name":"hole_7_green","feature-color":"#2d6e2d","is_approximate":true,"source":"osm","@id":"e0192972-2032-452b-a85c-1f4f2358b572","osm_id":676452522}},{"type":"Feature","bbox":[-121.0709112,38.9610171,-121.070793,38.9614441],"geometry":{"type":"Polygon","coordinates":[[[-121.0709096,38.9613882],[-121.0709088,38.9614143],[-121.070904,38.9614317],[-121.07088,38.9614397],[-121.0708553,38.9614441],[-121.0708361,38.9614441],[-121.0708178,38.9614366],[-121.0708074,38.9614236],[-121.0707986,38.9613559],[-121.070793,38.9612871],[-121.0707946,38.9612287],[-121.0708002,38.9611604],[-121.0708034,38.9610934],[-121.0708042,38.9610562],[-121.070805,38.9610326],[-121.0708186,38.961022],[-121.0708441,38.9610171],[-121.0708761,38.9610183],[-121.0708904,38.9610239],[-121.0709064,38.9610344],[-121.0709088,38.961045],[-121.0709104,38.9612349],[-121.0709112,38.9613175],[-121.0709096,38.9613882]]]},"properties":{"course_id":"black_oak_auburn","course_name":"Black Oak Golf Course","hole_number":8,"feature_type":"tee_box","name":"hole_8_tee_box","feature-color":"#8b7355","is_approximate":true,"source":"osm","@id":"b7ac0355-1747-4abf-a315-03031b1384d3","osm_id":676453105}},{"type":"Feature","bbox":[-121.0708108,38.9632665,-121.070742,38.9633356],"geometry":{"type":"Polygon","coordinates":[[[-121.0708108,38.963302],[-121.0708069,38.9633179],[-121.0707945,38.9633309],[-121.0707777,38.9633356],[-121.0707643,38.9633341],[-121.0707501,38.9633275],[-121.0707437,38.9633194],[-121.070742,38.9633085],[-121.0707425,38.9632987],[-121.0707451,38.9632896],[-121.0707501,38.9632795],[-121.0707563,38.9632736],[-121.0707659,38.963271],[-121.0707779,38.9632665],[-121.0707894,38.9632669],[-121.0707982,38.9632696],[-121.0708068,38.9632832],[-121.0708108,38.963302]]]},"properties":{"course_id":"black_oak_auburn","course_name":"Black Oak Golf Course","hole_number":8,"feature_type":"bunker","name":"hole_8_bunker","feature-color":"#d4b483","is_approximate":true,"source":"osm","@id":"e470cc72-2ea4-498d-8339-e9e6e1f9c611","osm_id":676453107}},{"type":"Feature","bbox":[-121.0704218,38.9626998,-121.0703162,38.9627756],"geometry":{"type":"Polygon","coordinates":[[[-121.0704169,38.9627188],[-121.0704218,38.962744],[-121.0704072,38.9627642],[-121.0703795,38.9627718],[-121.0703389,38.9627756],[-121.0703243,38.962763],[-121.0703162,38.962744],[-121.0703178,38.9627276],[-121.0703373,38.9627099],[-121.0703649,38.9627023],[-121.0703925,38.9626998],[-121.0704169,38.9627188]]]},"properties":{"course_id":"black_oak_auburn","course_name":"Black Oak Golf Course","hole_number":8,"feature_type":"bunker","name":"hole_8_bunker_2","feature-color":"#d4b483","is_approximate":true,"source":"osm","@id":"5d1fb955-a3be-49cd-8c22-2d0852d41eeb","osm_id":676453108}},{"type":"Feature","bbox":[-121.070874,38.9632926,-121.0705765,38.9635283],"geometry":{"type":"Polygon","coordinates":[[[-121.0707634,38.963383],[-121.070793,38.963386],[-121.0708187,38.9633919],[-121.0708378,38.9634008],[-121.0708521,38.9634164],[-121.0708692,38.963446],[-121.070874,38.9634742],[-121.0708654,38.9635016],[-121.0708454,38.9635194],[-121.0708254,38.9635261],[-121.0708006,38.9635283],[-121.0707672,38.9635224],[-121.0707348,38.9635135],[-121.0706881,38.9634749],[-121.0706137,38.9634023],[-121.0705937,38.9633712],[-121.0705765,38.963343],[-121.0705765,38.9633163],[-121.0705832,38.9633015],[-121.0706051,38.9632926],[-121.0706347,38.9632926],[-121.0706566,38.963303],[-121.07069,38.9633311],[-121.07071,38.9633519],[-121.0707262,38.9633682],[-121.0707634,38.963383]]]},"properties":{"course_id":"black_oak_auburn","course_name":"Black Oak Golf Course","hole_number":8,"feature_type":"green","name":"hole_8_green","feature-color":"#2d6e2d","is_approximate":true,"source":"osm","@id":"c886ebcd-257a-4a05-b3f1-ff74c47bf212","osm_id":676453111}},{"type":"Feature","bbox":[-121.0697175,38.9626839,-121.0694915,38.9629938],"geometry":{"type":"Polygon","coordinates":[[[-121.0697175,38.9627054],[-121.0695793,38.9629827],[-121.0695602,38.9629923],[-121.0695364,38.9629938],[-121.0695173,38.9629871],[-121.0695011,38.9629812],[-121.0694935,38.9629708],[-121.0694915,38.9629501],[-121.069544,38.9627766],[-121.0695554,38.9627588],[-121.0695774,38.9627395],[-121.0695974,38.9627269],[-121.0696307,38.9627062],[-121.0696632,38.9626928],[-121.069687,38.9626847],[-121.0697013,38.9626839],[-121.0697175,38.9626906],[-121.0697175,38.9627054]]]},"properties":{"course_id":"black_oak_auburn","course_name":"Black Oak Golf Course","hole_number":9,"feature_type":"tee_box","name":"hole_9_tee_box","feature-color":"#8b7355","is_approximate":true,"source":"osm","@id":"793239f8-2915-4b9d-8604-164c463ce0ba","osm_id":676454156}},{"type":"Feature","bbox":[-121.0695827,38.9634316,-121.0695052,38.963498],"geometry":{"type":"Polygon","coordinates":[[[-121.0695781,38.9634493],[-121.0695804,38.9634679],[-121.0695827,38.9634847],[-121.0695736,38.9634927],[-121.0695508,38.963498],[-121.0695223,38.9634935],[-121.0695098,38.9634829],[-121.0695052,38.9634652],[-121.0695075,38.9634519],[-121.0695143,38.9634369],[-121.0695337,38.9634316],[-121.0695508,38.9634324],[-121.0695633,38.963436],[-121.0695781,38.9634493]]]},"properties":{"course_id":"black_oak_auburn","course_name":"Black Oak Golf Course","hole_number":9,"feature_type":"tee_box","name":"hole_9_tee_box_2","feature-color":"#8b7355","is_approximate":true,"source":"osm","@id":"44f70cc4-76ce-45e0-a655-a764f837ee5e","osm_id":676454157}},{"type":"Feature","bbox":[-121.0693715,38.9655336,-121.0692697,38.9656158],"geometry":{"type":"Polygon","coordinates":[[[-121.069292,38.9655857],[-121.0692774,38.9655734],[-121.0692697,38.9655629],[-121.0692712,38.9655513],[-121.0692803,38.965538],[-121.0693054,38.9655336],[-121.0693327,38.9655415],[-121.069351,38.9655548],[-121.0693646,38.9655637],[-121.0693715,38.9655832],[-121.0693658,38.9656044],[-121.0693507,38.9656136],[-121.0693403,38.9656158],[-121.0693239,38.9656084],[-121.0693088,38.9655975],[-121.069292,38.9655857]]]},"properties":{"course_id":"black_oak_auburn","course_name":"Black Oak Golf Course","hole_number":9,"feature_type":"bunker","name":"hole_9_bunker","feature-color":"#d4b483","is_approximate":true,"source":"osm","@id":"f0e9d5e0-b9ca-4e3d-aa91-6486a519beab","osm_id":676454159}},{"type":"Feature","bbox":[-121.0694232,38.9656221,-121.0691887,38.9658656],"geometry":{"type":"Polygon","coordinates":[[[-121.0694232,38.9657726],[-121.0694198,38.9657957],[-121.0694084,38.965824],[-121.0693914,38.965847],[-121.0693663,38.9658612],[-121.0693413,38.9658656],[-121.0693116,38.9658612],[-121.0692707,38.9658461],[-121.0692331,38.9658107],[-121.0692126,38.9657682],[-121.0691978,38.9657169],[-121.0691887,38.9656752],[-121.0691971,38.9656566],[-121.0692046,38.9656398],[-121.0692194,38.9656292],[-121.0692353,38.9656221],[-121.0692558,38.9656221],[-121.0692752,38.9656274],[-121.0692997,38.9656403],[-121.0693105,38.965646],[-121.069339,38.9656708],[-121.06938,38.965708],[-121.0694039,38.9657328],[-121.0694164,38.9657541],[-121.0694232,38.9657726]]]},"properties":{"course_id":"black_oak_auburn","course_name":"Black Oak Golf Course","hole_number":9,"feature_type":"green","name":"hole_9_green","feature-color":"#2d6e2d","is_approximate":true,"source":"osm","@id":"e3161804-bbbb-484e-943d-8bcf30553e5f","osm_id":676454160}},{"type":"Feature","bbox":[-121.0758939,38.969226,-121.0755655,38.9694447],"geometry":{"type":"Polygon","coordinates":[[[-121.0755655,38.9692937],[-121.0758559,38.9694447],[-121.0758725,38.9694377],[-121.0758855,38.9694206],[-121.0758939,38.9694081],[-121.075643,38.969226],[-121.0756148,38.9692363],[-121.0755852,38.9692613],[-121.0755655,38.9692937]]]},"properties":{"course_id":"black_oak_auburn","course_name":"Black Oak Golf Course","hole_number":3,"feature_type":"tee_box","name":"hole_3_tee_box","feature-color":"#8b7355","is_approximate":true,"source":"osm","@id":"5bb75f00-d6ad-40f7-b8e7-1bba134352c0","osm_id":1489618310}},{"type":"Feature","bbox":[-121.0761423,38.9694483,-121.0759139,38.9695839],"geometry":{"type":"Polygon","coordinates":[[[-121.0759461,38.9694483],[-121.0759139,38.9694811],[-121.0761127,38.9695839],[-121.0761423,38.9695679],[-121.0759461,38.9694483]]]},"properties":{"course_id":"black_oak_auburn","course_name":"Black Oak Golf Course","hole_number":3,"feature_type":"tee_box","name":"hole_3_tee_box_2","feature-color":"#8b7355","is_approximate":true,"source":"osm","@id":"ad13b7d5-ca87-4646-a030-50961a81364f","osm_id":1489618311}},{"type":"Feature","bbox":[-121.071026,38.9663953,-121.0707523,38.9664832],"geometry":{"type":"Polygon","coordinates":[[[-121.0709987,38.966469],[-121.0707991,38.9664832],[-121.0707751,38.9664736],[-121.070759,38.9664535],[-121.0707523,38.966432],[-121.0707661,38.9664148],[-121.0707939,38.9664003],[-121.0708373,38.9663953],[-121.0709934,38.9663953],[-121.0710148,38.9664105],[-121.0710227,38.9664288],[-121.071026,38.966446],[-121.0710182,38.96646],[-121.0709987,38.966469]]]},"properties":{"course_id":"black_oak_auburn","course_name":"Black Oak Golf Course","hole_number":4,"feature_type":"tee_box","name":"hole_4_tee_box","feature-color":"#8b7355","is_approximate":true,"source":"osm","@id":"eae614af-f971-40c1-bab3-ac9076faceef","osm_id":1489618312}},{"type":"Feature","bbox":[-121.0707425,38.9663272,-121.0706336,38.9664765],"geometry":{"type":"Polygon","coordinates":[[[-121.0706729,38.9664763],[-121.0706512,38.9664765],[-121.0706336,38.966464],[-121.0706358,38.9664192],[-121.0706583,38.9663487],[-121.0706864,38.9663289],[-121.0707145,38.9663272],[-121.0707369,38.9663412],[-121.0707425,38.9663604],[-121.0706729,38.9664763]]]},"properties":{"course_id":"black_oak_auburn","course_name":"Black Oak Golf Course","hole_number":4,"feature_type":"tee_box","name":"hole_4_tee_box_2","feature-color":"#8b7355","is_approximate":true,"source":"osm","@id":"43edd61c-2a4d-4069-8b88-626aaccaa072","osm_id":1489618313}},{"type":"Feature","bbox":[-121.0706201,38.9663234,-121.0705609,38.9664393],"geometry":{"type":"Polygon","coordinates":[[[-121.0705898,38.9664364],[-121.0705785,38.9664393],[-121.0705647,38.9664326],[-121.0705609,38.9664244],[-121.0705849,38.9663315],[-121.0705961,38.9663234],[-121.0706044,38.9663237],[-121.0706134,38.9663278],[-121.0706201,38.9663336],[-121.0705898,38.9664364]]]},"properties":{"course_id":"black_oak_auburn","course_name":"Black Oak Golf Course","hole_number":4,"feature_type":"tee_box","name":"hole_4_tee_box_3","feature-color":"#8b7355","is_approximate":true,"source":"osm","@id":"cd5d457a-cf2f-4dc0-ba9e-f66eaecb528e","osm_id":1489618314}},{"type":"Feature","bbox":[-121.0688029,38.9656022,-121.0686845,38.965697],"geometry":{"type":"Polygon","coordinates":[[[-121.0688029,38.9656707],[-121.0687877,38.9656884],[-121.0687471,38.965697],[-121.0687141,38.9656828],[-121.0686852,38.9656553],[-121.0686845,38.9656319],[-121.0687048,38.9656092],[-121.0687307,38.9656022],[-121.0687687,38.9656136],[-121.0687978,38.9656384],[-121.0688029,38.9656707]]]},"properties":{"course_id":"black_oak_auburn","course_name":"Black Oak Golf Course","hole_number":5,"feature_type":"tee_box","name":"hole_5_tee_box_2","feature-color":"#8b7355","is_approximate":true,"source":"osm","@id":"8d723c28-2333-45ab-b196-70b820dee05d","osm_id":1489618315}},{"type":"Feature","bbox":[-121.0690478,38.9614475,-121.0689474,38.9615375],"geometry":{"type":"Polygon","coordinates":[[[-121.0690061,38.9615375],[-121.0689771,38.9615335],[-121.0689503,38.9615149],[-121.0689474,38.9614896],[-121.0689628,38.9614603],[-121.0689816,38.9614475],[-121.0690096,38.9614497],[-121.0690318,38.9614603],[-121.0690478,38.9614856],[-121.0690426,38.9615118],[-121.069029,38.9615291],[-121.0690061,38.9615375]]]},"properties":{"course_id":"black_oak_auburn","course_name":"Black Oak Golf Course","hole_number":7,"feature_type":"tee_box","name":"hole_7_tee_box_4","feature-color":"#8b6914","is_approximate":true,"source":"osm","@id":"83c4b69e-3410-4413-88ab-9c935965d85b","osm_id":1489618316}},{"type":"Feature","bbox":[-121.07158548216665,38.96631305420256,-121.07158548216665,38.96631305420256],"geometry":{"type":"Point","coordinates":[-121.07158548216665,38.96631305420256]},"properties":{"course_id":"black_oak_auburn","course_name":"Black Oak Golf Course","hole_number":1,"feature_type":"tee_center","name":"hole_1_tee_center","feature-color":"#c8a055","is_approximate":true,"source":"derived","@id":"87f36600-a289-4380-ac61-41faef132d0d"}},{"type":"Feature","bbox":[-121.07478115204036,38.96635460465444,-121.07478115204036,38.96635460465444],"geometry":{"type":"Point","coordinates":[-121.07478115204036,38.96635460465444]},"properties":{"course_id":"black_oak_auburn","course_name":"Black Oak Golf Course","hole_number":1,"feature_type":"green_center","name":"hole_1_green_center","feature-color":"#5aae5a","is_approximate":true,"source":"derived","@id":"110e3d96-91ad-4eed-8fe8-f18f7b4ae235"}},{"type":"Feature","bbox":[-121.07467681694587,38.96635324807804,-121.07467681694587,38.96635324807804],"geometry":{"type":"Point","coordinates":[-121.07467681694587,38.96635324807804]},"properties":{"course_id":"black_oak_auburn","course_name":"Black Oak Golf Course","hole_number":1,"feature_type":"green_front","name":"hole_1_green_front","feature-color":"#5aae5a","is_approximate":true,"source":"derived","@id":"beb0afaa-fa9e-47f2-8f5c-5b3138be1a28"}},{"type":"Feature","bbox":[-121.0748890802192,38.96635600794852,-121.0748890802192,38.96635600794852],"geometry":{"type":"Point","coordinates":[-121.0748890802192,38.96635600794852]},"properties":{"course_id":"black_oak_auburn","course_name":"Black Oak Golf Course","hole_number":1,"feature_type":"green_back","name":"hole_1_green_back","feature-color":"#5aae5a","is_approximate":true,"source":"derived","@id":"e516e051-07cd-4dc4-80de-491a232da41d"}},{"type":"Feature","bbox":[-121.07497599673056,38.966747432211,-121.07497599673056,38.966747432211],"geometry":{"type":"Point","coordinates":[-121.07497599673056,38.966747432211]},"properties":{"course_id":"black_oak_auburn","course_name":"Black Oak Golf Course","hole_number":2,"feature_type":"tee_center","name":"hole_2_tee_center","feature-color":"#c8a055","is_approximate":true,"source":"derived","@id":"69d17aa2-254b-41c4-b852-327271d5ee51"}},{"type":"Feature","bbox":[-121.07623685401065,38.96937078627914,-121.07623685401065,38.96937078627914],"geometry":{"type":"Point","coordinates":[-121.07623685401065,38.96937078627914]},"properties":{"course_id":"black_oak_auburn","course_name":"Black Oak Golf Course","hole_number":2,"feature_type":"green_center","name":"hole_2_green_center","feature-color":"#5aae5a","is_approximate":true,"source":"derived","@id":"16a5eb4f-c118-4267-abf9-9a03c00131fa"}},{"type":"Feature","bbox":[-121.07615566533283,38.96929561033352,-121.07615566533283,38.96929561033352],"geometry":{"type":"Point","coordinates":[-121.07615566533283,38.96929561033352]},"properties":{"course_id":"black_oak_auburn","course_name":"Black Oak Golf Course","hole_number":2,"feature_type":"green_front","name":"hole_2_green_front","feature-color":"#5aae5a","is_approximate":true,"source":"derived","@id":"0bc14bbd-d638-4098-99f4-21e11d243969"}},{"type":"Feature","bbox":[-121.07631339605132,38.969451169744985,-121.07631339605132,38.969451169744985],"geometry":{"type":"Point","coordinates":[-121.07631339605132,38.969451169744985]},"properties":{"course_id":"black_oak_auburn","course_name":"Black Oak Golf Course","hole_number":2,"feature_type":"green_back","name":"hole_2_green_back","feature-color":"#5aae5a","is_approximate":true,"source":"derived","@id":"cd6f1080-8597-4407-a0b1-1979307274b8"}},{"type":"Feature","bbox":[-121.07602170054594,38.96951613861962,-121.07602170054594,38.96951613861962],"geometry":{"type":"Point","coordinates":[-121.07602170054594,38.96951613861962]},"properties":{"course_id":"black_oak_auburn","course_name":"Black Oak Golf Course","hole_number":3,"feature_type":"tee_center","name":"hole_3_tee_center","feature-color":"#c8a055","is_approximate":true,"source":"derived","@id":"375fbeb5-751a-4788-a0b1-b9eaab80329c"}},{"type":"Feature","bbox":[-121.07155547533283,38.96684586120466,-121.07155547533283,38.96684586120466],"geometry":{"type":"Point","coordinates":[-121.07155547533283,38.96684586120466]},"properties":{"course_id":"black_oak_auburn","course_name":"Black Oak Golf Course","hole_number":3,"feature_type":"green_center","name":"hole_3_green_center","feature-color":"#5aae5a","is_approximate":true,"source":"derived","@id":"76df2849-e82b-4cbf-b213-4e38a1855d2d"}},{"type":"Feature","bbox":[-121.07166585063662,38.96691179347944,-121.07166585063662,38.96691179347944],"geometry":{"type":"Point","coordinates":[-121.07166585063662,38.96691179347944]},"properties":{"course_id":"black_oak_auburn","course_name":"Black Oak Golf Course","hole_number":3,"feature_type":"green_front","name":"hole_3_green_front","feature-color":"#5aae5a","is_approximate":true,"source":"derived","@id":"fa61978b-4748-4f64-a29a-05ab8af5f28a"}},{"type":"Feature","bbox":[-121.07145390966438,38.96678519133259,-121.07145390966438,38.96678519133259],"geometry":{"type":"Point","coordinates":[-121.07145390966438,38.96678519133259]},"properties":{"course_id":"black_oak_auburn","course_name":"Black Oak Golf Course","hole_number":3,"feature_type":"green_back","name":"hole_3_green_back","feature-color":"#5aae5a","is_approximate":true,"source":"derived","@id":"66987dd2-55e8-4083-917c-8933ca915eb0"}},{"type":"Feature","bbox":[-121.07088844210561,38.96643663784623,-121.07088844210561,38.96643663784623],"geometry":{"type":"Point","coordinates":[-121.07088844210561,38.96643663784623]},"properties":{"course_id":"black_oak_auburn","course_name":"Black Oak Golf Course","hole_number":4,"feature_type":"tee_center","name":"hole_4_tee_center","feature-color":"#c8a055","is_approximate":true,"source":"derived","@id":"2597501b-9979-4e7f-a15b-daf1f81e1b5c"}},{"type":"Feature","bbox":[-121.0695806196694,38.966313968827784,-121.0695806196694,38.966313968827784],"geometry":{"type":"Point","coordinates":[-121.0695806196694,38.966313968827784]},"properties":{"course_id":"black_oak_auburn","course_name":"Black Oak Golf Course","hole_number":4,"feature_type":"green_center","name":"hole_4_green_center","feature-color":"#5aae5a","is_approximate":true,"source":"derived","@id":"584c00be-d828-4cf6-a1c6-5adf5e6dfeaa"}},{"type":"Feature","bbox":[-121.06967607565157,38.966321546392486,-121.06967607565157,38.966321546392486],"geometry":{"type":"Point","coordinates":[-121.06967607565157,38.966321546392486]},"properties":{"course_id":"black_oak_auburn","course_name":"Black Oak Golf Course","hole_number":4,"feature_type":"green_front","name":"hole_4_green_front","feature-color":"#5aae5a","is_approximate":true,"source":"derived","@id":"93144193-660c-4147-88f8-27dd01606c83"}},{"type":"Feature","bbox":[-121.06948846830092,38.966306653592625,-121.06948846830092,38.966306653592625],"geometry":{"type":"Point","coordinates":[-121.06948846830092,38.966306653592625]},"properties":{"course_id":"black_oak_auburn","course_name":"Black Oak Golf Course","hole_number":4,"feature_type":"green_back","name":"hole_4_green_back","feature-color":"#5aae5a","is_approximate":true,"source":"derived","@id":"f58256b2-c0d6-4c83-b5c7-609cea34982f"}},{"type":"Feature","bbox":[-121.06910386596242,38.96588578806987,-121.06910386596242,38.96588578806987],"geometry":{"type":"Point","coordinates":[-121.06910386596242,38.96588578806987]},"properties":{"course_id":"black_oak_auburn","course_name":"Black Oak Golf Course","hole_number":5,"feature_type":"tee_center","name":"hole_5_tee_center","feature-color":"#c8a055","is_approximate":true,"source":"derived","@id":"aaf064c7-3232-4e14-994a-355e821b198c"}},{"type":"Feature","bbox":[-121.06613148883213,38.96466155866744,-121.06613148883213,38.96466155866744],"geometry":{"type":"Point","coordinates":[-121.06613148883213,38.96466155866744]},"properties":{"course_id":"black_oak_auburn","course_name":"Black Oak Golf Course","hole_number":5,"feature_type":"green_center","name":"hole_5_green_center","feature-color":"#5aae5a","is_approximate":true,"source":"derived","@id":"5382a07a-6410-4399-be12-e9da6a94b9df"}},{"type":"Feature","bbox":[-121.06624355127481,38.96470595624694,-121.06624355127481,38.96470595624694],"geometry":{"type":"Point","coordinates":[-121.06624355127481,38.96470595624694]},"properties":{"course_id":"black_oak_auburn","course_name":"Black Oak Golf Course","hole_number":5,"feature_type":"green_front","name":"hole_5_green_front","feature-color":"#5aae5a","is_approximate":true,"source":"derived","@id":"a661fa10-a1c5-4ac8-8081-b565d4ccb8d5"}},{"type":"Feature","bbox":[-121.0660061289531,38.96461189282879,-121.0660061289531,38.96461189282879],"geometry":{"type":"Point","coordinates":[-121.0660061289531,38.96461189282879]},"properties":{"course_id":"black_oak_auburn","course_name":"Black Oak Golf Course","hole_number":5,"feature_type":"green_back","name":"hole_5_green_back","feature-color":"#5aae5a","is_approximate":true,"source":"derived","@id":"be94c56d-f5aa-419c-9d3e-9fab2d980c22"}},{"type":"Feature","bbox":[-121.06588222636199,38.96441865777167,-121.06588222636199,38.96441865777167],"geometry":{"type":"Point","coordinates":[-121.06588222636199,38.96441865777167]},"properties":{"course_id":"black_oak_auburn","course_name":"Black Oak Golf Course","hole_number":6,"feature_type":"tee_center","name":"hole_6_tee_center","feature-color":"#c8a055","is_approximate":true,"source":"derived","@id":"17836dc6-2ace-46ed-8dbb-0146bd0eaf77"}},{"type":"Feature","bbox":[-121.06882084096182,38.96186325901664,-121.06882084096182,38.96186325901664],"geometry":{"type":"Point","coordinates":[-121.06882084096182,38.96186325901664]},"properties":{"course_id":"black_oak_auburn","course_name":"Black Oak Golf Course","hole_number":6,"feature_type":"green_center","name":"hole_6_green_center","feature-color":"#5aae5a","is_approximate":true,"source":"derived","@id":"bcdfdb2c-613b-4ca2-86dc-9fbbc1ee73a2"}},{"type":"Feature","bbox":[-121.06877011908071,38.962020088887044,-121.06877011908071,38.962020088887044],"geometry":{"type":"Point","coordinates":[-121.06877011908071,38.962020088887044]},"properties":{"course_id":"black_oak_auburn","course_name":"Black Oak Golf Course","hole_number":6,"feature_type":"green_front","name":"hole_6_green_front","feature-color":"#5aae5a","is_approximate":true,"source":"derived","@id":"338ea391-f145-4089-83ea-93b1cbd1b5e0"}},{"type":"Feature","bbox":[-121.0688601413791,38.96174174382016,-121.0688601413791,38.96174174382016],"geometry":{"type":"Point","coordinates":[-121.0688601413791,38.96174174382016]},"properties":{"course_id":"black_oak_auburn","course_name":"Black Oak Golf Course","hole_number":6,"feature_type":"green_back","name":"hole_6_green_back","feature-color":"#5aae5a","is_approximate":true,"source":"derived","@id":"a1acf942-4740-4959-832f-036b7ee1c96c"}},{"type":"Feature","bbox":[-121.06959388089915,38.96283633101148,-121.06959388089915,38.96283633101148],"geometry":{"type":"Point","coordinates":[-121.06959388089915,38.96283633101148]},"properties":{"course_id":"black_oak_auburn","course_name":"Black Oak Golf Course","hole_number":9,"feature_type":"tee_center","name":"hole_9_tee_center","feature-color":"#c8a055","is_approximate":true,"source":"derived","@id":"a44c8a30-754e-43e3-a2bf-6c3b8820ab66"}},{"type":"Feature","bbox":[-121.06930203931216,38.96574731302027,-121.06930203931216,38.96574731302027],"geometry":{"type":"Point","coordinates":[-121.06930203931216,38.96574731302027]},"properties":{"course_id":"black_oak_auburn","course_name":"Black Oak Golf Course","hole_number":9,"feature_type":"green_center","name":"hole_9_green_center","feature-color":"#5aae5a","is_approximate":true,"source":"derived","@id":"6b557901-58cc-4f94-b4b8-4d339da0709a"}},{"type":"Feature","bbox":[-121.06923530010197,38.96562954743186,-121.06923530010197,38.96562954743186],"geometry":{"type":"Point","coordinates":[-121.06923530010197,38.96562954743186]},"properties":{"course_id":"black_oak_auburn","course_name":"Black Oak Golf Course","hole_number":9,"feature_type":"green_front","name":"hole_9_green_front","feature-color":"#5aae5a","is_approximate":true,"source":"derived","@id":"546006cd-7596-42f3-8ad3-c1e449c47c2d"}},{"type":"Feature","bbox":[-121.06936241280904,38.96584315460947,-121.06936241280904,38.96584315460947],"geometry":{"type":"Point","coordinates":[-121.06936241280904,38.96584315460947]},"properties":{"course_id":"black_oak_auburn","course_name":"Black Oak Golf Course","hole_number":9,"feature_type":"green_back","name":"hole_9_green_back","feature-color":"#5aae5a","is_approximate":true,"source":"derived","@id":"06ba4dbc-9cce-48b4-af6c-79f6d20b0ec5"}},{"type":"Feature","bbox":[-121.0683446241362,38.9613124633635,-121.0683446241362,38.9613124633635],"geometry":{"type":"Point","coordinates":[-121.0683446241362,38.9613124633635]},"properties":{"course_id":"black_oak_auburn","course_name":"Black Oak Golf Course","hole_number":7,"feature_type":"tee_center","name":"hole_7_tee_center","feature-color":"#c8a055","is_approximate":true,"source":"derived","@id":"c1594635-d830-4c0f-af42-87385740505f"}},{"type":"Feature","bbox":[-121.07047705078072,38.961212687655454,-121.07047705078072,38.961212687655454],"geometry":{"type":"Point","coordinates":[-121.07047705078072,38.961212687655454]},"properties":{"course_id":"black_oak_auburn","course_name":"Black Oak Golf Course","hole_number":7,"feature_type":"green_center","name":"hole_7_green_center","feature-color":"#5aae5a","is_approximate":true,"source":"derived","@id":"79ff8f32-b088-44ec-bfb3-107620fb343a"}},{"type":"Feature","bbox":[-121.0703143509883,38.96121857978477,-121.0703143509883,38.96121857978477],"geometry":{"type":"Point","coordinates":[-121.0703143509883,38.96121857978477]},"properties":{"course_id":"black_oak_auburn","course_name":"Black Oak Golf Course","hole_number":7,"feature_type":"green_front","name":"hole_7_green_front","feature-color":"#5aae5a","is_approximate":true,"source":"derived","@id":"27450686-7ba1-4f20-8b98-d8def20e6cda"}},{"type":"Feature","bbox":[-121.07063003839417,38.96120714725009,-121.07063003839417,38.96120714725009],"geometry":{"type":"Point","coordinates":[-121.07063003839417,38.96120714725009]},"properties":{"course_id":"black_oak_auburn","course_name":"Black Oak Golf Course","hole_number":7,"feature_type":"green_back","name":"hole_7_green_back","feature-color":"#5aae5a","is_approximate":true,"source":"derived","@id":"586a1b08-ab08-423a-b3b6-2dbf5b25f1dd"}},{"type":"Feature","bbox":[-121.07085455601013,38.96123147523923,-121.07085455601013,38.96123147523923],"geometry":{"type":"Point","coordinates":[-121.07085455601013,38.96123147523923]},"properties":{"course_id":"black_oak_auburn","course_name":"Black Oak Golf Course","hole_number":8,"feature_type":"tee_center","name":"hole_8_tee_center","feature-color":"#c8a055","is_approximate":true,"source":"derived","@id":"7f1cc174-1009-4f6d-bb09-fe9462f4ff92"}},{"type":"Feature","bbox":[-121.07069546070308,38.96340767670833,-121.07069546070308,38.96340767670833],"geometry":{"type":"Point","coordinates":[-121.07069546070308,38.96340767670833]},"properties":{"course_id":"black_oak_auburn","course_name":"Black Oak Golf Course","hole_number":8,"feature_type":"green_center","name":"hole_8_green_center","feature-color":"#5aae5a","is_approximate":true,"source":"derived","@id":"c4c15a15-8ac7-4873-a385-b23cb749cc91"}},{"type":"Feature","bbox":[-121.07060210608117,38.96329690759819,-121.07060210608117,38.96329690759819],"geometry":{"type":"Point","coordinates":[-121.07060210608117,38.96329690759819]},"properties":{"course_id":"black_oak_auburn","course_name":"Black Oak Golf Course","hole_number":8,"feature_type":"green_front","name":"hole_8_green_front","feature-color":"#5aae5a","is_approximate":true,"source":"derived","@id":"c3cc329b-2ca4-433c-8671-2c734b8ae6c5"}},{"type":"Feature","bbox":[-121.07083178979863,38.963510023756896,-121.07083178979863,38.963510023756896],"geometry":{"type":"Point","coordinates":[-121.07083178979863,38.963510023756896]},"properties":{"course_id":"black_oak_auburn","course_name":"Black Oak Golf Course","hole_number":8,"feature_type":"green_back","name":"hole_8_green_back","feature-color":"#5aae5a","is_approximate":true,"source":"derived","@id":"bbc1e053-80c5-4986-a4ee-22c332e3575d"}},{"type":"Feature","bbox":[-121.07465866840349,38.9662731607614,-121.07195260216926,38.96694610656809],"geometry":{"coordinates":[[[-121.07197887684558,38.9663451480032],[-121.07234090294565,38.96638277912936],[-121.07285200220139,38.96643208995391],[-121.073360401679,38.966650243250626],[-121.07353201164847,38.96667344826153],[-121.07378942660242,38.96665314387769],[-121.07415876110147,38.966513913659156],[-121.07438260019197,38.96633117358283],[-121.07455794081258,38.9662731607614],[-121.07465866840349,38.96645300035303],[-121.07455047950975,38.96659223069048],[-121.0743900614948,38.966751765116555],[-121.07415503045007,38.96688519363278],[-121.07391626875344,38.966943205953015],[-121.07361408598153,38.96694610656809],[-121.0732410208308,38.9668387837429],[-121.07282115305074,38.96667790715523],[-121.07259358330884,38.966582186442764],[-121.0721944035977,38.96645455862543],[-121.07196543241096,38.966419919903274],[-121.07195260216926,38.96638001708794],[-121.07197887684558,38.9663451480032]]],"type":"Polygon"},"properties":{"course_id":"black_oak","course_name":"Black Oak","hole_number":1,"feature_type":"fairway","name":"hole_1_fairway","feature-color":"#4a7c3f","is_approximate":false,"source":"user_draw","@id":"a6567b43-957f-4481-a229-9c1973da6717"}},{"type":"Feature","bbox":[-121.076154231331,38.96719950127709,-121.0749229648337,38.96935627049959],"geometry":{"coordinates":[[[-121.0749229648337,38.96723388592872],[-121.07500754793189,38.96762226378638],[-121.07504584971196,38.96790641109436],[-121.07509969130582,38.968296889405366],[-121.07527791238297,38.96859942415276],[-121.07557494751184,38.968865007025954],[-121.07581421639637,38.969168843502615],[-121.07602290281125,38.969314309274694],[-121.07610385874791,38.96935627049959],[-121.07611285385201,38.969293328652896],[-121.076154231331,38.96925975964524],[-121.076132643081,38.96908911694351],[-121.07607507441483,38.96895204300009],[-121.07586998604175,38.96881496879135],[-121.07564270440689,38.96855246705027],[-121.07555095434535,38.96834965193136],[-121.07552936609561,38.96830769011086],[-121.07535486107611,38.96831188629383],[-121.07531708163893,38.96821397528669],[-121.07534358735732,38.968132808139785],[-121.07523584401838,38.96731081255217],[-121.07516513872898,38.96719950127709],[-121.0749229648337,38.96723388592872]]],"type":"Polygon"},"properties":{"course_id":"black_oak","course_name":"Black Oak","hole_number":2,"feature_type":"fairway","name":"hole_2_fairway","feature-color":"#4a7c3f","is_approximate":false,"source":"user_draw","@id":"f3765a31-fb61-4e34-a201-533c50b6248e"}},{"type":"Feature","bbox":[-121.07514523568076,38.96684888330654,-121.07166828813399,38.968866783053755],"geometry":{"coordinates":[[[-121.07501040888513,38.968866783053755],[-121.07464840705558,38.96859227994611],[-121.07429087438402,38.968494987450214],[-121.0736230067791,38.96825158598094],[-121.07329675821637,38.96810912123817],[-121.07237611158797,38.96738289407284],[-121.07169957224252,38.96705737190766],[-121.07166828813399,38.96694617806338],[-121.0717040414011,38.966869732194226],[-121.07185599278645,38.96684888330654],[-121.07211967313148,38.96691490476306],[-121.07264703382151,38.96725196071489],[-121.0730744411051,38.96747020055537],[-121.07325320744073,38.967463250985844],[-121.07407106342637,38.96781420340119],[-121.0742335273689,38.96810643855784],[-121.07435419464572,38.96818635784189],[-121.07455083761477,38.968137711332076],[-121.07514523568076,38.968752739750386],[-121.07501040888513,38.968866783053755]]],"type":"Polygon"},"properties":{"course_id":"black_oak","course_name":"Black Oak","hole_number":3,"feature_type":"fairway","name":"hole_3_fairway","feature-color":"#4a7c3f","is_approximate":false,"source":"user_draw","@id":"4212e72c-7362-4fb1-9afe-065e00d18dac"}},{"type":"Feature","bbox":[-121.06829157633186,38.964577957677164,-121.06629203445962,38.96530967338995],"geometry":{"coordinates":[[[-121.06821105067812,38.965260290133614],[-121.06805393901085,38.96530967338995],[-121.06783665691808,38.965265488372694],[-121.06768623085348,38.96519271299036],[-121.06773971567634,38.96507835152289],[-121.06769291645662,38.965002976818965],[-121.0675458331934,38.96503936461764],[-121.06718815344054,38.964953593348866],[-121.06674999825557,38.96486166929361],[-121.06648925974393,38.96477329867264],[-121.0663756044955,38.96473171246021],[-121.06629203445962,38.96465893652885],[-121.06637125653366,38.964577957677164],[-121.06668072345576,38.96460968795475],[-121.06696638523016,38.964636129841864],[-121.06740194217656,38.964705360935426],[-121.06788484660419,38.964771465545624],[-121.06796000462948,38.96487563197621],[-121.06809943478135,38.964883564513],[-121.06825586861031,38.964965534014596],[-121.06829157633186,38.96508319974566],[-121.06827287228688,38.96519954319754],[-121.06821105067812,38.965260290133614]]],"type":"Polygon"},"properties":{"course_id":"black_oak","course_name":"Black Oak","hole_number":5,"feature_type":"fairway","name":"hole_5_fairway","feature-color":"#4a7c3f","is_approximate":false,"source":"user_draw","@id":"063e8477-1632-4829-ba30-7d1ef1212050"}},{"type":"Feature","bbox":[-121.07065835953081,38.961737205753735,-121.06986388997572,38.963279742687774],"geometry":{"coordinates":[[[-121.07046561839624,38.963279742687774],[-121.07038570134019,38.96314449790171],[-121.07023056823189,38.963053116143215],[-121.06997671405458,38.962980010651535],[-121.06986388997572,38.962910560365],[-121.06988739499187,38.96274241728315],[-121.06987799298557,38.962643724418996],[-121.06987329198205,38.962545031417335],[-121.07001902308403,38.96239881931001],[-121.07013654816603,38.96224164095847],[-121.07016005318249,38.96210273886916],[-121.07013654816603,38.96200770044058],[-121.07026817625818,38.96191266188447],[-121.07035279431739,38.961737205753735],[-121.07050322642253,38.96187245322622],[-121.07065835953081,38.96190900655293],[-121.07053613344564,38.962237985643895],[-121.07046561839624,38.96243537236515],[-121.07049382441588,38.96276434901205],[-121.07048912341271,38.9629324920418],[-121.07064097861198,38.96316555174704],[-121.07064097861198,38.96324513300601],[-121.07046561839624,38.963279742687774]]],"type":"Polygon"},"properties":{"course_id":"black_oak","course_name":"Black Oak","hole_number":8,"feature_type":"fairway","name":"hole_8_fairway","feature-color":"#4a7c3f","is_approximate":false,"source":"user_draw","@id":"aa06dbb0-209a-4b34-927a-fb5eaee51aab"}},{"type":"Feature","bbox":[-121.06965467618483,38.96378475242739,-121.06886748574333,38.965608067809285],"geometry":{"coordinates":[[[-121.06886748574333,38.965031441339875],[-121.06887162885081,38.96479305807625],[-121.06896692032542,38.96450635281869],[-121.06912850152143,38.9644354816773],[-121.06927765339444,38.9643130677201],[-121.0693149413629,38.96419709640833],[-121.06922793610353,38.96411333923146],[-121.0692362223185,38.963952267459035],[-121.06930665514766,38.96383307411179],[-121.06941023283721,38.96378475242739],[-121.06965467618483,38.963807302551174],[-121.06965467618483,38.96414555354204],[-121.06962981753938,38.964422596007495],[-121.06957181403324,38.964596552350685],[-121.06943094837521,38.96463520925769],[-121.06932737068561,38.96469963738957],[-121.0692652240717,38.96489936422569],[-121.06926108096422,38.965128082975156],[-121.06925279474899,38.96534069410856],[-121.06931079825513,38.96546632765984],[-121.06929422582493,38.96552753366851],[-121.06919893435031,38.96557907552938],[-121.06909121355298,38.965608067809285],[-121.06901663761633,38.96551464819734],[-121.06893377546473,38.96531814447283],[-121.06886748574333,38.965031441339875]]],"type":"Polygon"},"properties":{"course_id":"black_oak","course_name":"Black Oak","hole_number":9,"feature_type":"fairway","name":"hole_9_fairway","feature-color":"#4a7c3f","is_approximate":false,"source":"user_draw","@id":"d9b1a622-5556-4447-bf57-950e50e9e4e4"}}]}