{"type":"FeatureCollection","features":[{"type":"Feature","bbox":[-159.3406137,22.0245237,-159.3406137,22.0245237],"geometry":{"type":"Point","coordinates":[-159.3406137,22.0245237]},"properties":{"course_id":"wailua_kapaa","course_name":"Wailua Golf Course","hole_number":1,"feature_type":"tee_box","name":"hole_1_tee_box","feature-color":"#8b7355","is_approximate":true,"source":"osm","@id":"3cc4c66a-5c8f-41a5-9ff5-49948629684f","osm_id":12054362354}},{"type":"Feature","bbox":[-159.3407867,22.0246392,-159.3407867,22.0246392],"geometry":{"type":"Point","coordinates":[-159.3407867,22.0246392]},"properties":{"course_id":"wailua_kapaa","course_name":"Wailua Golf Course","hole_number":1,"feature_type":"tee_box","name":"hole_1_tee_box_2","feature-color":"#8b7355","is_approximate":true,"source":"osm","@id":"c3150f26-1eec-4521-bf4c-63cff435f229","osm_id":12054362362}},{"type":"Feature","bbox":[-159.34063,22.0244238,-159.3405089,22.0245237],"geometry":{"type":"Polygon","coordinates":[[[-159.3405974,22.0245197],[-159.3405089,22.0244548],[-159.3405138,22.0244311],[-159.3405406,22.0244238],[-159.3405657,22.024436],[-159.3406185,22.0244776],[-159.34063,22.0244976],[-159.3406273,22.0245205],[-159.3406137,22.0245237],[-159.3405974,22.0245197]]]},"properties":{"course_id":"wailua_kapaa","course_name":"Wailua Golf Course","hole_number":1,"feature_type":"tee_box","name":"hole_1_tee_box_3","feature-color":"#8b7355","is_approximate":true,"source":"osm","@id":"748df803-4595-4927-af57-91ec0d805093","osm_id":1301422466}},{"type":"Feature","bbox":[-159.3407893,22.0245294,-159.3406595,22.0246408],"geometry":{"type":"Polygon","coordinates":[[[-159.3407603,22.0246408],[-159.3406819,22.0245882],[-159.3406595,22.0245527],[-159.3406863,22.0245307],[-159.3407066,22.0245294],[-159.3407554,22.0245723],[-159.3407893,22.0246106],[-159.3407867,22.0246392],[-159.3407603,22.0246408]]]},"properties":{"course_id":"wailua_kapaa","course_name":"Wailua Golf Course","hole_number":1,"feature_type":"tee_box","name":"hole_1_tee_box_4","feature-color":"#8b7355","is_approximate":true,"source":"osm","@id":"f124e6d3-a1bf-4860-a2ff-2d03e217bf72","osm_id":1301422467}},{"type":"Feature","bbox":[-159.3409722,22.0244509,-159.3406967,22.0246745],"geometry":{"type":"Polygon","coordinates":[[[-159.3408362,22.0245933],[-159.3409489,22.024672],[-159.34097,22.0246745],[-159.3409722,22.0246166],[-159.3409224,22.02455],[-159.3408023,22.0244786],[-159.3407332,22.0244509],[-159.3406967,22.024508],[-159.3408362,22.0245933]]]},"properties":{"course_id":"wailua_kapaa","course_name":"Wailua Golf Course","hole_number":1,"feature_type":"tee_box","name":"hole_1_tee_box_5","feature-color":"#8b6914","is_approximate":true,"source":"osm","@id":"94f9ef12-1319-4ab6-8d62-779815859cb3","osm_id":1301422468}},{"type":"Feature","bbox":[-159.3409418,22.0246578,-159.3408349,22.024752],"geometry":{"type":"Polygon","coordinates":[[[-159.3408613,22.0247071],[-159.3409026,22.024752],[-159.3409418,22.0247235],[-159.3409137,22.0246904],[-159.3408679,22.0246647],[-159.340841,22.0246578],[-159.3408349,22.0246753],[-159.3408472,22.0247006],[-159.3408613,22.0247071]]]},"properties":{"course_id":"wailua_kapaa","course_name":"Wailua Golf Course","hole_number":1,"feature_type":"tee_box","name":"hole_1_tee_box_6","feature-color":"#8b7355","is_approximate":true,"source":"osm","@id":"6ce78edb-be8f-43fa-8aaa-76fd75149d8d","osm_id":1301422469}},{"type":"Feature","bbox":[-159.3390214,22.0210385,-159.338816,22.021254],"geometry":{"type":"Polygon","coordinates":[[[-159.3389086,22.0212422],[-159.3388652,22.0211926],[-159.3388202,22.021143],[-159.338816,22.0211199],[-159.3388186,22.02109],[-159.3388393,22.0210532],[-159.3388657,22.0210385],[-159.3389346,22.021039],[-159.3389552,22.0210414],[-159.3389701,22.0210596],[-159.3390034,22.0210772],[-159.3390214,22.0211376],[-159.3390177,22.0211676],[-159.3389822,22.0212245],[-159.3389854,22.0212363],[-159.3389478,22.0212471],[-159.3389399,22.021254],[-159.3389086,22.0212422]]]},"properties":{"course_id":"wailua_kapaa","course_name":"Wailua Golf Course","hole_number":1,"feature_type":"green","name":"hole_1_green","feature-color":"#2d6e2d","is_approximate":true,"source":"osm","@id":"5f536add-3d8c-4c81-bd90-62b93e72c3ab","osm_id":1301422473}},{"type":"Feature","bbox":[-159.3385805,22.0154753,-159.3380938,22.0157683],"geometry":{"type":"Polygon","coordinates":[[[-159.3381664,22.0157683],[-159.3384518,22.0156277],[-159.3385805,22.0155817],[-159.3384696,22.0154753],[-159.3383116,22.0155415],[-159.3381448,22.0156348],[-159.3381014,22.015682],[-159.3380938,22.0157399],[-159.3381295,22.0157647],[-159.3381664,22.0157683]]]},"properties":{"course_id":"wailua_kapaa","course_name":"Wailua Golf Course","hole_number":3,"feature_type":"tee_box","name":"hole_3_tee_box","feature-color":"#8b7355","is_approximate":true,"source":"osm","@id":"7e52d4c9-79bc-4640-bf5b-d61afccb7418","osm_id":1301422481}},{"type":"Feature","bbox":[-159.338866,22.0152837,-159.3386305,22.0155127],"geometry":{"type":"Polygon","coordinates":[[[-159.3386305,22.0154417],[-159.3386683,22.0155127],[-159.3387297,22.0155123],[-159.3387884,22.0154793],[-159.338866,22.0154382],[-159.3388639,22.0153799],[-159.3388251,22.0153274],[-159.338772,22.0152837],[-159.3386973,22.015297],[-159.3386414,22.015352],[-159.338634,22.0153938],[-159.3386305,22.0154417]]]},"properties":{"course_id":"wailua_kapaa","course_name":"Wailua Golf Course","hole_number":3,"feature_type":"tee_box","name":"hole_3_tee_box_2","feature-color":"#8b7355","is_approximate":true,"source":"osm","@id":"9a74656d-51c9-44ca-aa74-1a4900dddbfc","osm_id":1301422482}},{"type":"Feature","bbox":[-159.34022,22.0145451,-159.339095,22.0152657],"geometry":{"type":"Polygon","coordinates":[[[-159.3393124,22.0148985],[-159.3391329,22.0149915],[-159.339095,22.0150919],[-159.3391293,22.015189],[-159.3391707,22.0152388],[-159.3392508,22.0152657],[-159.3393045,22.0152641],[-159.3394471,22.0151988],[-159.3399198,22.0150152],[-159.3399295,22.0149229],[-159.3399014,22.0148373],[-159.3399823,22.014794],[-159.3400066,22.0147843],[-159.3400862,22.0147524],[-159.3401742,22.0147524],[-159.34022,22.0146577],[-159.3401927,22.0145736],[-159.3401109,22.0145451],[-159.3400519,22.0145483],[-159.3400079,22.0145932],[-159.3399982,22.0146536],[-159.3399489,22.0147067],[-159.3398917,22.0147238],[-159.3398318,22.0147312],[-159.3397799,22.0147148],[-159.3397464,22.0146903],[-159.3396646,22.0147165],[-159.3394198,22.0148332],[-159.3393124,22.0148985]]]},"properties":{"course_id":"wailua_kapaa","course_name":"Wailua Golf Course","hole_number":3,"feature_type":"fairway","name":"hole_3_fairway","feature-color":"#4a7c3f","is_approximate":true,"source":"osm","@id":"c0553161-0877-4605-a723-2afcc8985e77","osm_id":1301422483}},{"type":"Feature","bbox":[-159.3399832,22.01455,-159.3397904,22.0147197],"geometry":{"type":"Polygon","coordinates":[[[-159.3398767,22.0147083],[-159.3399295,22.0146846],[-159.3399709,22.0146414],[-159.3399832,22.0145924],[-159.3399542,22.0145541],[-159.3399014,22.01455],[-159.3398512,22.0145557],[-159.3398036,22.014603],[-159.3397904,22.0146324],[-159.3397931,22.0146683],[-159.3398089,22.0147091],[-159.339838,22.0147197],[-159.3398767,22.0147083]]]},"properties":{"course_id":"wailua_kapaa","course_name":"Wailua Golf Course","hole_number":3,"feature_type":"bunker","name":"hole_3_bunker","feature-color":"#d4b483","is_approximate":true,"source":"osm","@id":"45834f39-463b-494b-94f0-d7f4f12997fa","osm_id":1301422484}},{"type":"Feature","bbox":[-159.3401232,22.0147777,-159.3399339,22.0149319],"geometry":{"type":"Polygon","coordinates":[[[-159.3399559,22.0149221],[-159.3400316,22.0149319],[-159.3400968,22.0149009],[-159.3401232,22.0148348],[-159.3401047,22.0148005],[-159.3400651,22.0147777],[-159.3400237,22.0147956],[-159.3399718,22.0148144],[-159.3399507,22.0148421],[-159.3399392,22.0148674],[-159.3399339,22.0148813],[-159.3399418,22.0149107],[-159.3399559,22.0149221]]]},"properties":{"course_id":"wailua_kapaa","course_name":"Wailua Golf Course","hole_number":3,"feature_type":"bunker","name":"hole_3_bunker_2","feature-color":"#d4b483","is_approximate":true,"source":"osm","@id":"8d80123a-a9cb-416a-be4b-62aaff0d6a1e","osm_id":1301422485}},{"type":"Feature","bbox":[-159.3402033,22.0145606,-159.339933,22.0147843],"geometry":{"type":"Polygon","coordinates":[[[-159.3399383,22.0147312],[-159.339933,22.0147483],[-159.3399489,22.0147687],[-159.3399709,22.0147777],[-159.3400066,22.0147843],[-159.3400475,22.0147556],[-159.3400739,22.0147385],[-159.3401267,22.0147303],[-159.3401707,22.0147271],[-159.3402033,22.0146675],[-159.3401954,22.0146267],[-159.3401769,22.0145949],[-159.340139,22.0145745],[-159.3400862,22.0145606],[-159.3400475,22.0145834],[-159.3400343,22.0146112],[-159.3400167,22.0146585],[-159.3399735,22.0147059],[-159.3399383,22.0147312]]]},"properties":{"course_id":"wailua_kapaa","course_name":"Wailua Golf Course","hole_number":3,"feature_type":"green","name":"hole_3_green","feature-color":"#2d6e2d","is_approximate":true,"source":"osm","@id":"207d1efd-fcf8-4e08-b3a4-78192b929d1f","osm_id":1301422486}},{"type":"Feature","bbox":[-159.3406585,22.0145571,-159.3404383,22.0147729],"geometry":{"type":"Polygon","coordinates":[[[-159.3405349,22.0147077],[-159.3405678,22.0147539],[-159.3405897,22.0147729],[-159.3406336,22.0147518],[-159.3406585,22.0147213],[-159.3406234,22.0146657],[-159.340548,22.0145571],[-159.3404763,22.0145714],[-159.3404383,22.0145877],[-159.3404727,22.0146433],[-159.3405151,22.0146908],[-159.3405349,22.0147077]]]},"properties":{"course_id":"wailua_kapaa","course_name":"Wailua Golf Course","hole_number":4,"feature_type":"tee_box","name":"hole_4_tee_box","feature-color":"#8b7355","is_approximate":true,"source":"osm","@id":"e7489473-cbbe-4eed-8ebc-af8af02b1a36","osm_id":1301422488}},{"type":"Feature","bbox":[-159.3411129,22.0149092,-159.3407844,22.0154194],"geometry":{"type":"Polygon","coordinates":[[[-159.3408107,22.015011],[-159.3408685,22.0150523],[-159.3409176,22.0151582],[-159.3409578,22.0152321],[-159.3410054,22.015319],[-159.3410727,22.0154194],[-159.3411049,22.015418],[-159.3411129,22.0154051],[-159.3411129,22.0153576],[-159.3410412,22.0152918],[-159.341001,22.0152796],[-159.3409263,22.015146],[-159.3409512,22.0151134],[-159.3409541,22.0150795],[-159.3409556,22.0150001],[-159.3409139,22.0149614],[-159.3408751,22.0149201],[-159.3407939,22.0149092],[-159.3407844,22.0149608],[-159.3407976,22.014992],[-159.3408107,22.015011]]]},"properties":{"course_id":"wailua_kapaa","course_name":"Wailua Golf Course","hole_number":4,"feature_type":"tee_box","name":"hole_4_tee_box_2","feature-color":"#8b7355","is_approximate":true,"source":"osm","@id":"a6b448bc-247e-4b14-b1ff-8737ab084dbd","osm_id":1301422489}},{"type":"Feature","bbox":[-159.3425275,22.0177327,-159.3423351,22.0180488],"geometry":{"type":"Polygon","coordinates":[[[-159.3425185,22.0178409],[-159.3425024,22.017803],[-159.342486,22.017768],[-159.3424619,22.0177555],[-159.3424461,22.0177473],[-159.3423822,22.0177327],[-159.342355,22.0177596],[-159.3423541,22.0177773],[-159.3423532,22.0177965],[-159.3423686,22.0178215],[-159.3423805,22.0178422],[-159.3423927,22.0178662],[-159.3423864,22.0178879],[-159.3423679,22.0179219],[-159.3423361,22.0179384],[-159.3423351,22.0179792],[-159.3423525,22.0180116],[-159.3423738,22.0180333],[-159.3423972,22.0180472],[-159.3424283,22.0180488],[-159.3424549,22.0180339],[-159.3424748,22.0180245],[-159.342494,22.0179818],[-159.3425199,22.0179348],[-159.3425275,22.0178756],[-159.3425185,22.0178409]]]},"properties":{"course_id":"wailua_kapaa","course_name":"Wailua Golf Course","hole_number":4,"feature_type":"green","name":"hole_4_green","feature-color":"#2d6e2d","is_approximate":true,"source":"osm","@id":"69418716-5e57-4ae9-8419-be29b3cf5673","osm_id":1301422490}},{"type":"Feature","bbox":[-159.3425831,22.0176757,-159.3424751,22.0177953],"geometry":{"type":"Polygon","coordinates":[[[-159.3424797,22.0177382],[-159.3424895,22.0177606],[-159.3425083,22.0177807],[-159.3425293,22.0177953],[-159.3425461,22.0177927],[-159.3425695,22.0177797],[-159.3425831,22.0177541],[-159.342574,22.0177311],[-159.3425621,22.0177085],[-159.3425496,22.0176903],[-159.3425237,22.0176757],[-159.3424919,22.0176803],[-159.3424776,22.0176987],[-159.3424751,22.0177214],[-159.3424797,22.0177382]]]},"properties":{"course_id":"wailua_kapaa","course_name":"Wailua Golf Course","hole_number":4,"feature_type":"bunker","name":"hole_4_bunker","feature-color":"#d4b483","is_approximate":true,"source":"osm","@id":"b933789b-6c65-41e0-88c4-b469aa285938","osm_id":1301422491}},{"type":"Feature","bbox":[-159.3423637,22.0177949,-159.3422488,22.0179374],"geometry":{"type":"Polygon","coordinates":[[[-159.3422488,22.0178613],[-159.3422498,22.0179128],[-159.3423036,22.0179374],[-159.3423302,22.0179277],[-159.3423448,22.0179141],[-159.3423595,22.017895],[-159.3423637,22.017873],[-159.3423606,22.0178416],[-159.3423557,22.0178254],[-159.3423309,22.0178027],[-159.3423144,22.0177949],[-159.3422858,22.0177991],[-159.3422718,22.0178063],[-159.3422575,22.0178215],[-159.3422491,22.0178438],[-159.3422488,22.0178613]]]},"properties":{"course_id":"wailua_kapaa","course_name":"Wailua Golf Course","hole_number":4,"feature_type":"bunker","name":"hole_4_bunker_2","feature-color":"#d4b483","is_approximate":true,"source":"osm","@id":"c4043a30-20ab-4863-a545-e719d87997bd","osm_id":1301422492}},{"type":"Feature","bbox":[-159.3424988,22.01562,-159.3412444,22.0177811],"geometry":{"type":"Polygon","coordinates":[[[-159.3423541,22.0177773],[-159.342355,22.0177596],[-159.3423822,22.0177327],[-159.3424461,22.0177473],[-159.3424619,22.0177555],[-159.3424471,22.0177162],[-159.3424452,22.0176862],[-159.3424988,22.0176419],[-159.342226,22.0164156],[-159.3422092,22.0163631],[-159.3421218,22.016248],[-159.3419992,22.0160945],[-159.3419026,22.0160007],[-159.3418181,22.0159194],[-159.3415673,22.0156473],[-159.3414419,22.01562],[-159.3413351,22.0156547],[-159.3412444,22.0157066],[-159.3412497,22.0157734],[-159.3418075,22.0163449],[-159.3418902,22.0164562],[-159.3419462,22.01657],[-159.3421984,22.0175822],[-159.3422567,22.0177683],[-159.3422735,22.0177811],[-159.3423541,22.0177773]]]},"properties":{"course_id":"wailua_kapaa","course_name":"Wailua Golf Course","hole_number":4,"feature_type":"fairway","name":"hole_4_fairway","feature-color":"#4a7c3f","is_approximate":true,"source":"osm","@id":"5d709415-4603-4dab-ba6b-b37e1741d92a","osm_id":1301422493}},{"type":"Feature","bbox":[-159.3388395,22.0194099,-159.3387101,22.019973],"geometry":{"type":"Polygon","coordinates":[[[-159.338748,22.0195641],[-159.3387145,22.0197485],[-159.3387101,22.0198424],[-159.3387181,22.0198824],[-159.3387427,22.0199216],[-159.3387647,22.0199689],[-159.3387946,22.019973],[-159.3388175,22.0199607],[-159.3388184,22.0198155],[-159.3388202,22.0197028],[-159.3388281,22.0195772],[-159.338836,22.0194996],[-159.3388395,22.0194409],[-159.3388307,22.0194099],[-159.3387929,22.0194115],[-159.3387753,22.0194188],[-159.3387524,22.0194719],[-159.3387506,22.0195258],[-159.338748,22.0195641]]]},"properties":{"course_id":"wailua_kapaa","course_name":"Wailua Golf Course","hole_number":2,"feature_type":"tee_box","name":"hole_2_tee_box","feature-color":"#8b7355","is_approximate":true,"source":"osm","@id":"c1458040-30cb-43a8-8c58-9aed7dbd3c8a","osm_id":1301422494}},{"type":"Feature","bbox":[-159.3401586,22.0160668,-159.3399514,22.0163146],"geometry":{"type":"Polygon","coordinates":[[[-159.3399943,22.0163095],[-159.3399728,22.0162975],[-159.3399556,22.0162659],[-159.3399514,22.016209],[-159.3399619,22.016156],[-159.3399825,22.0161245],[-159.3400149,22.0160921],[-159.3400582,22.0160742],[-159.3400939,22.0160672],[-159.3401258,22.0160668],[-159.3401473,22.0160801],[-159.3401586,22.0161034],[-159.3401523,22.0161346],[-159.3401485,22.0161685],[-159.3401006,22.0162067],[-159.3400809,22.016225],[-159.3400704,22.0162449],[-159.3400708,22.0162608],[-159.3400632,22.0162807],[-159.3400145,22.0163146],[-159.3400052,22.0163146],[-159.3399943,22.0163095]]]},"properties":{"course_id":"wailua_kapaa","course_name":"Wailua Golf Course","hole_number":5,"feature_type":"green","name":"hole_5_green","feature-color":"#2d6e2d","is_approximate":true,"source":"osm","@id":"e17664a0-6655-4e66-8523-ddc2db821c98","osm_id":1301422501}},{"type":"Feature","bbox":[-159.3402212,22.0161958,-159.3400775,22.0163524],"geometry":{"type":"Polygon","coordinates":[[[-159.3401279,22.0163524],[-159.3400973,22.0163329],[-159.3400775,22.0163134],[-159.34008,22.0162714],[-159.3400947,22.0162336],[-159.3401216,22.0162008],[-159.3401506,22.0161958],[-159.3401821,22.0161985],[-159.3401985,22.0162063],[-159.3402158,22.0162285],[-159.3402212,22.0162546],[-159.3402166,22.016285],[-159.3401969,22.016313],[-159.3401784,22.0163267],[-159.3401561,22.0163392],[-159.3401279,22.0163524]]]},"properties":{"course_id":"wailua_kapaa","course_name":"Wailua Golf Course","hole_number":5,"feature_type":"bunker","name":"hole_5_bunker","feature-color":"#d4b483","is_approximate":true,"source":"osm","@id":"8910badf-67a6-4a54-9a7b-215c14720a33","osm_id":1301422502}},{"type":"Feature","bbox":[-159.339938,22.0162347,-159.3397724,22.0164034],"geometry":{"type":"Polygon","coordinates":[[[-159.3398745,22.0164007],[-159.3398148,22.0163555],[-159.3397783,22.0163033],[-159.3397724,22.0162714],[-159.3397947,22.0162499],[-159.3398237,22.0162347],[-159.3398548,22.0162406],[-159.3398838,22.0162554],[-159.3399207,22.0162834],[-159.3399325,22.0163053],[-159.3399363,22.0163384],[-159.339938,22.016368],[-159.3399291,22.016389],[-159.3399132,22.0163992],[-159.3398913,22.0164034],[-159.3398745,22.0164007]]]},"properties":{"course_id":"wailua_kapaa","course_name":"Wailua Golf Course","hole_number":5,"feature_type":"bunker","name":"hole_5_bunker_2","feature-color":"#d4b483","is_approximate":true,"source":"osm","@id":"2b102372-e915-4611-996e-05ac766e6fd2","osm_id":1301422503}},{"type":"Feature","bbox":[-159.3414674,22.0160331,-159.3399245,22.0178142],"geometry":{"type":"Polygon","coordinates":[[[-159.3413056,22.0178142],[-159.3411985,22.0177634],[-159.3400481,22.0165268],[-159.3399716,22.0164252],[-159.3399691,22.0163165],[-159.3399347,22.0162622],[-159.3399245,22.0161523],[-159.3399716,22.0160744],[-159.3400455,22.0160378],[-159.3401156,22.0160331],[-159.3401526,22.0160543],[-159.3401908,22.0161216],[-159.3401615,22.0161724],[-159.3400632,22.0162807],[-159.3400723,22.0163449],[-159.340136,22.0163862],[-159.3402354,22.0163461],[-159.3414521,22.0176973],[-159.3414674,22.0177433],[-159.3414559,22.0177752],[-159.3413056,22.0178142]]]},"properties":{"course_id":"wailua_kapaa","course_name":"Wailua Golf Course","hole_number":5,"feature_type":"fairway","name":"hole_5_fairway","feature-color":"#4a7c3f","is_approximate":true,"source":"osm","@id":"fbe6f147-d32f-4c63-b17c-3f81c9f6de17","osm_id":1301422504}},{"type":"Feature","bbox":[-159.3397204,22.0170663,-159.3396279,22.017178],"geometry":{"type":"Polygon","coordinates":[[[-159.3396522,22.017178],[-159.3396279,22.017077],[-159.3396443,22.0170663],[-159.3396711,22.0170725],[-159.3396997,22.0170776],[-159.3397125,22.017099],[-159.3397167,22.0171176],[-159.3397204,22.0171453],[-159.3397118,22.017161],[-159.3396796,22.0171729],[-159.3396522,22.017178]]]},"properties":{"course_id":"wailua_kapaa","course_name":"Wailua Golf Course","hole_number":6,"feature_type":"tee_box","name":"hole_6_tee_box","feature-color":"#8b7355","is_approximate":true,"source":"osm","@id":"b219f01f-ad0e-4b3e-9df2-f4a308a01f0a","osm_id":1301422506}},{"type":"Feature","bbox":[-159.3399325,22.0172458,-159.3397019,22.0176681],"geometry":{"type":"Polygon","coordinates":[[[-159.3397859,22.0174759],[-159.3398351,22.0176309],[-159.3398473,22.0176681],[-159.3399325,22.017667],[-159.3399191,22.017579],[-159.3398662,22.017468],[-159.3398248,22.0173727],[-159.3398145,22.0172971],[-159.3397999,22.0172458],[-159.3397384,22.0172655],[-159.3397019,22.0172847],[-159.3397634,22.0174364],[-159.3397859,22.0174759]]]},"properties":{"course_id":"wailua_kapaa","course_name":"Wailua Golf Course","hole_number":6,"feature_type":"tee_box","name":"hole_6_tee_box_2","feature-color":"#8b7355","is_approximate":true,"source":"osm","@id":"f5c2fcba-76c3-4bde-96d3-65f42b8c59e0","osm_id":1301422507}},{"type":"Feature","bbox":[-159.3412856,22.0182273,-159.3400651,22.0201977],"geometry":{"type":"Polygon","coordinates":[[[-159.3412199,22.0201977],[-159.3411875,22.0201809],[-159.3410744,22.0201398],[-159.3405353,22.0192452],[-159.3403113,22.0188052],[-159.3400651,22.0183054],[-159.3401272,22.0182376],[-159.3402004,22.0182273],[-159.3402625,22.0182581],[-159.34042,22.0184741],[-159.3407705,22.0190005],[-159.3410056,22.0194077],[-159.3411387,22.0196051],[-159.3412186,22.0198025],[-159.3412856,22.0200151],[-159.3412232,22.0200658],[-159.3412372,22.0201213],[-159.3412777,22.0201441],[-159.3412423,22.0201502],[-159.3412196,22.0201736],[-159.3412199,22.0201977]]]},"properties":{"course_id":"wailua_kapaa","course_name":"Wailua Golf Course","hole_number":6,"feature_type":"fairway","name":"hole_6_fairway","feature-color":"#4a7c3f","is_approximate":true,"source":"osm","@id":"d67a0994-6fd9-494d-978c-e68e8c581ec0","osm_id":1301422508}},{"type":"Feature","bbox":[-159.3413978,22.0200505,-159.3412513,22.0201379],"geometry":{"type":"Polygon","coordinates":[[[-159.341264,22.0201072],[-159.3412946,22.0201284],[-159.3413532,22.0201379],[-159.3413838,22.0201332],[-159.3413978,22.0201166],[-159.3413978,22.0200895],[-159.3413761,22.0200682],[-159.3413213,22.0200505],[-159.341278,22.0200505],[-159.3412513,22.0200682],[-159.341264,22.0201072]]]},"properties":{"course_id":"wailua_kapaa","course_name":"Wailua Golf Course","hole_number":6,"feature_type":"bunker","name":"hole_6_bunker","feature-color":"#d4b483","is_approximate":true,"source":"osm","@id":"6f9b8c71-8ef4-4d46-b34e-077b62cc5020","osm_id":1301422509}},{"type":"Feature","bbox":[-159.3412294,22.0201882,-159.3411109,22.0203198],"geometry":{"type":"Polygon","coordinates":[[[-159.3411131,22.0202547],[-159.3411248,22.0202893],[-159.3411416,22.0203062],[-159.3411731,22.0203198],[-159.3412082,22.0203144],[-159.3412243,22.0202954],[-159.3412294,22.0202709],[-159.3412207,22.020235],[-159.341206,22.0202113],[-159.3411804,22.0201936],[-159.3411592,22.0201882],[-159.3411336,22.0202045],[-159.3411189,22.0202153],[-159.3411109,22.0202404],[-159.3411131,22.0202547]]]},"properties":{"course_id":"wailua_kapaa","course_name":"Wailua Golf Course","hole_number":6,"feature_type":"bunker","name":"hole_6_bunker_2","feature-color":"#d4b483","is_approximate":true,"source":"osm","@id":"ab880a93-397d-4e93-8a1e-4e1ceb302868","osm_id":1301422510}},{"type":"Feature","bbox":[-159.3414358,22.0201441,-159.3412196,22.0203462],"geometry":{"type":"Polygon","coordinates":[[[-159.3414065,22.020195],[-159.3414292,22.0202282],[-159.3414358,22.0202587],[-159.3414277,22.0203008],[-159.3413787,22.0203401],[-159.341337,22.0203462],[-159.3412997,22.0203456],[-159.3412594,22.0203205],[-159.3412514,22.0202845],[-159.3412382,22.0202221],[-159.3412199,22.0201977],[-159.3412196,22.0201736],[-159.3412423,22.0201502],[-159.3412777,22.0201441],[-159.341348,22.0201563],[-159.3414065,22.020195]]]},"properties":{"course_id":"wailua_kapaa","course_name":"Wailua Golf Course","hole_number":6,"feature_type":"green","name":"hole_6_green","feature-color":"#2d6e2d","is_approximate":true,"source":"osm","@id":"4977b06b-8675-48f8-afc5-7cfd86d0c362","osm_id":1301422511}},{"type":"Feature","bbox":[-159.3424358,22.0186129,-159.3423084,22.0187298],"geometry":{"type":"Polygon","coordinates":[[[-159.3423746,22.0187145],[-159.3424014,22.0187298],[-159.3424358,22.018718],[-159.3424358,22.0186755],[-159.3423631,22.0186235],[-159.3423402,22.0186129],[-159.3423084,22.0186294],[-159.3423236,22.0186826],[-159.3423504,22.0186979],[-159.3423746,22.0187145]]]},"properties":{"course_id":"wailua_kapaa","course_name":"Wailua Golf Course","hole_number":5,"feature_type":"tee_box","name":"hole_5_tee_box","feature-color":"#8b7355","is_approximate":true,"source":"osm","@id":"fe44730d-0a4a-4f7e-887a-16df101ddaff","osm_id":1301422512}},{"type":"Feature","bbox":[-159.3421262,22.018196,-159.3418535,22.0184605],"geometry":{"type":"Polygon","coordinates":[[[-159.3420892,22.0184558],[-159.3419898,22.018366],[-159.3419007,22.0182668],[-159.3418535,22.0182208],[-159.3418688,22.018196],[-159.3419134,22.0182219],[-159.3419631,22.0182645],[-159.3420497,22.018346],[-159.3420829,22.0183767],[-159.3421172,22.0184086],[-159.3421262,22.018431],[-159.3421185,22.0184605],[-159.3420892,22.0184558]]]},"properties":{"course_id":"wailua_kapaa","course_name":"Wailua Golf Course","hole_number":5,"feature_type":"tee_box","name":"hole_5_tee_box_2","feature-color":"#8b7355","is_approximate":true,"source":"osm","@id":"768f94f6-64e5-46fc-a554-39b1b9c40779","osm_id":1301422513}},{"type":"Feature","bbox":[-159.3411922,22.0208097,-159.3410963,22.0212479],"geometry":{"type":"Polygon","coordinates":[[[-159.3411922,22.0208111],[-159.3411197,22.0208097],[-159.3410992,22.0210858],[-159.3410963,22.0211584],[-159.3411051,22.0212316],[-159.3411212,22.0212466],[-159.3411439,22.0212479],[-159.3411724,22.0212405],[-159.3411841,22.0212045],[-159.3411871,22.021039],[-159.3411914,22.0208341],[-159.3411922,22.0208111]]]},"properties":{"course_id":"wailua_kapaa","course_name":"Wailua Golf Course","hole_number":7,"feature_type":"tee_box","name":"hole_7_tee_box","feature-color":"#8b7355","is_approximate":true,"source":"osm","@id":"e1593ec3-da0a-4e91-ae51-6fc21772a21f","osm_id":1301422517}},{"type":"Feature","bbox":[-159.3413532,22.021001,-159.3412507,22.0212574],"geometry":{"type":"Polygon","coordinates":[[[-159.3412595,22.0211977],[-159.3412646,22.0212452],[-159.3413012,22.0212574],[-159.341318,22.0212371],[-159.3413312,22.0211848],[-159.3413393,22.021115],[-159.3413532,22.0210498],[-159.3413502,22.0210173],[-159.3413268,22.021001],[-159.3412829,22.0210057],[-159.3412632,22.0210241],[-159.3412566,22.0211075],[-159.3412507,22.0211719],[-159.3412595,22.0211977]]]},"properties":{"course_id":"wailua_kapaa","course_name":"Wailua Golf Course","hole_number":7,"feature_type":"tee_box","name":"hole_7_tee_box_2","feature-color":"#8b7355","is_approximate":true,"source":"osm","@id":"c13629a7-67ff-40b6-a7ff-2cfcfeac03cf","osm_id":1301422518}},{"type":"Feature","bbox":[-159.3412285,22.0220517,-159.3409721,22.022167],"geometry":{"type":"Polygon","coordinates":[[[-159.3409755,22.0220957],[-159.3409742,22.022114],[-159.3409835,22.022125],[-159.3410133,22.0221483],[-159.3410431,22.0221604],[-159.3410835,22.022167],[-159.3411301,22.022162],[-159.3411827,22.0221518],[-159.3412045,22.0221409],[-159.341218,22.0221261],[-159.3412285,22.0221148],[-159.341223,22.0220969],[-159.3412075,22.022079],[-159.3411802,22.0220615],[-159.3411533,22.0220552],[-159.3411011,22.0220517],[-159.3410763,22.0220525],[-159.3410398,22.0220591],[-159.3410083,22.0220653],[-159.3409856,22.0220696],[-159.3409721,22.0220852],[-159.3409755,22.0220957]]]},"properties":{"course_id":"wailua_kapaa","course_name":"Wailua Golf Course","hole_number":7,"feature_type":"bunker","name":"hole_7_bunker","feature-color":"#d4b483","is_approximate":true,"source":"osm","@id":"5a6165f4-98cb-40cd-84b1-39a3138f3255","osm_id":1301422519}},{"type":"Feature","bbox":[-159.3412146,22.0221748,-159.3410175,22.0224565],"geometry":{"type":"Polygon","coordinates":[[[-159.3411436,22.0224487],[-159.3411041,22.0224565],[-159.3410574,22.0224328],[-159.3410507,22.0224109],[-159.3410684,22.0223786],[-159.3410621,22.0223166],[-159.3410389,22.0223046],[-159.3410284,22.0222987],[-159.3410175,22.0222317],[-159.341023,22.0221959],[-159.3410452,22.0221892],[-159.341086,22.0221783],[-159.3411058,22.0221748],[-159.3411348,22.0221803],[-159.3411633,22.0221873],[-159.3411839,22.0221943],[-159.3412033,22.0222126],[-159.3412146,22.0222496],[-159.3411768,22.0223213],[-159.3411688,22.0223712],[-159.3411701,22.0224004],[-159.3411701,22.0224289],[-159.3411701,22.0224464],[-159.3411436,22.0224487]]]},"properties":{"course_id":"wailua_kapaa","course_name":"Wailua Golf Course","hole_number":7,"feature_type":"green","name":"hole_7_green","feature-color":"#2d6e2d","is_approximate":true,"source":"osm","@id":"2a3fd2a3-0f2e-4a66-9d2d-b33515355df0","osm_id":1301422520}},{"type":"Feature","bbox":[-159.3412928,22.02228,-159.3411806,22.0224515],"geometry":{"type":"Polygon","coordinates":[[[-159.3411852,22.0223876],[-159.3411886,22.0224168],[-159.341205,22.0224386],[-159.341223,22.0224476],[-159.3412398,22.0224515],[-159.3412672,22.0224417],[-159.3412882,22.0223817],[-159.3412928,22.0223474],[-159.3412827,22.0223166],[-159.3412768,22.0222894],[-159.3412587,22.02228],[-159.341231,22.0222894],[-159.3412024,22.0223042],[-159.3411877,22.0223155],[-159.3411806,22.0223572],[-159.3411852,22.0223876]]]},"properties":{"course_id":"wailua_kapaa","course_name":"Wailua Golf Course","hole_number":7,"feature_type":"bunker","name":"hole_7_bunker_2","feature-color":"#d4b483","is_approximate":true,"source":"osm","@id":"88b550b5-aa4f-4290-bba4-be9076f0234a","osm_id":1301422521}},{"type":"Feature","bbox":[-159.341036,22.0222866,-159.3408939,22.0224546],"geometry":{"type":"Polygon","coordinates":[[[-159.3409145,22.0224246],[-159.3409335,22.0224374],[-159.3409587,22.0224546],[-159.3409814,22.0224487],[-159.3410091,22.0224355],[-159.3410238,22.0224137],[-159.3410339,22.022395],[-159.341036,22.022363],[-159.3410314,22.022333],[-159.3410209,22.0223073],[-159.3409927,22.0222866],[-159.3409713,22.0222878],[-159.3409377,22.022289],[-159.3409103,22.0223085],[-159.3408965,22.0223205],[-159.340896,22.0223537],[-159.3408939,22.0223794],[-159.3409003,22.0223985],[-159.340904,22.0224156],[-159.3409145,22.0224246]]]},"properties":{"course_id":"wailua_kapaa","course_name":"Wailua Golf Course","hole_number":7,"feature_type":"bunker","name":"hole_7_bunker_3","feature-color":"#d4b483","is_approximate":true,"source":"osm","@id":"582251a7-694f-4a46-8a20-126ab531e592","osm_id":1301422522}},{"type":"Feature","bbox":[-159.3407337,22.0228363,-159.3406505,22.0230008],"geometry":{"type":"Polygon","coordinates":[[[-159.3407226,22.0228928],[-159.3407337,22.0229761],[-159.3406904,22.0230008],[-159.3406716,22.0229514],[-159.3406616,22.0228753],[-159.3406505,22.0228363],[-159.3407004,22.0228373],[-159.3407215,22.022865],[-159.3407226,22.0228928]]]},"properties":{"course_id":"wailua_kapaa","course_name":"Wailua Golf Course","hole_number":8,"feature_type":"tee_box","name":"hole_8_tee_box","feature-color":"#8b7355","is_approximate":true,"source":"osm","@id":"e58d3aa8-f963-47f6-b187-c5ce7b5fb5e2","osm_id":1302285470}},{"type":"Feature","bbox":[-159.3406505,22.022863,-159.3405618,22.0230398],"geometry":{"type":"Polygon","coordinates":[[[-159.3405784,22.0229442],[-159.3405951,22.0230131],[-159.3406272,22.0230398],[-159.3406505,22.0230141],[-159.3406439,22.0229195],[-159.340645,22.022863],[-159.3405862,22.022863],[-159.3405618,22.0228866],[-159.3405784,22.0229442]]]},"properties":{"course_id":"wailua_kapaa","course_name":"Wailua Golf Course","hole_number":8,"feature_type":"tee_box","name":"hole_8_tee_box_2","feature-color":"#8b7355","is_approximate":true,"source":"osm","@id":"93e9fb36-247a-437d-8e9d-199763a96355","osm_id":1302285471}},{"type":"Feature","bbox":[-159.3407104,22.0226615,-159.3405995,22.0227941],"geometry":{"type":"Polygon","coordinates":[[[-159.3406893,22.0226615],[-159.3407104,22.022789],[-159.3406239,22.0227941],[-159.3405995,22.0226615],[-159.3406893,22.0226615]]]},"properties":{"course_id":"wailua_kapaa","course_name":"Wailua Golf Course","hole_number":8,"feature_type":"tee_box","name":"hole_8_tee_box_3","feature-color":"#8b7355","is_approximate":true,"source":"osm","@id":"5e060933-5c16-4827-abba-96d1567509ff","osm_id":1302285472}},{"type":"Feature","bbox":[-159.3405762,22.0223654,-159.3404975,22.0224877],"geometry":{"type":"Polygon","coordinates":[[[-159.3405196,22.0224507],[-159.3405219,22.0224877],[-159.3405762,22.0224754],[-159.3405651,22.0223972],[-159.3405551,22.0223654],[-159.3404975,22.0223715],[-159.3405085,22.0224219],[-159.3405196,22.0224507]]]},"properties":{"course_id":"wailua_kapaa","course_name":"Wailua Golf Course","hole_number":8,"feature_type":"tee_box","name":"hole_8_tee_box_4","feature-color":"#8b7355","is_approximate":true,"source":"osm","@id":"060fcec8-093f-4b7d-bd91-87698409d3c2","osm_id":1302285473}},{"type":"Feature","bbox":[-159.3394472,22.0207043,-159.3393298,22.0209828],"geometry":{"type":"Polygon","coordinates":[[[-159.3393791,22.0209061],[-159.33939,22.0209665],[-159.3394095,22.0209828],[-159.3394369,22.02098],[-159.3394472,22.0209704],[-159.3394356,22.0208982],[-159.339415,22.0207601],[-159.3394046,22.0207178],[-159.3393681,22.0207043],[-159.3393298,22.0207229],[-159.3393432,22.0208193],[-159.3393681,22.0208864],[-159.3393791,22.0209061]]]},"properties":{"course_id":"wailua_kapaa","course_name":"Wailua Golf Course","hole_number":9,"feature_type":"tee_box","name":"hole_9_tee_box","feature-color":"#8b7355","is_approximate":true,"source":"osm","@id":"82b91b33-0488-4d0f-b386-b0b14f8a2019","osm_id":1302287734}},{"type":"Feature","bbox":[-159.3412779,22.0217978,-159.3394846,22.0242473],"geometry":{"type":"Polygon","coordinates":[[[-159.3412779,22.0242147],[-159.3412196,22.0241664],[-159.3412166,22.0241024],[-159.3412242,22.0240655],[-159.3403905,22.0232059],[-159.3401728,22.0229345],[-159.3399628,22.0225224],[-159.3398555,22.0223022],[-159.3398203,22.0221743],[-159.3397942,22.0219825],[-159.3396793,22.0217978],[-159.3395015,22.0218291],[-159.3394846,22.0218902],[-159.3395321,22.0221843],[-159.3396318,22.0225153],[-159.3398126,22.0228535],[-159.3399613,22.0230751],[-159.3401023,22.0232627],[-159.3402786,22.0234829],[-159.3405836,22.0237898],[-159.3407966,22.0240101],[-159.3409484,22.0241365],[-159.3410556,22.0242459],[-159.3411169,22.0241976],[-159.3411691,22.0241948],[-159.3412365,22.0242473],[-159.3412779,22.0242147]]]},"properties":{"course_id":"wailua_kapaa","course_name":"Wailua Golf Course","hole_number":9,"feature_type":"fairway","name":"hole_9_fairway","feature-color":"#4a7c3f","is_approximate":true,"source":"osm","@id":"f83a8fe2-e2bf-4b15-ac3c-d96023d171a1","osm_id":1302287735}},{"type":"Feature","bbox":[-159.341146,22.0248661,-159.3408012,22.0256972],"geometry":{"type":"Polygon","coordinates":[[[-159.3408242,22.0250422],[-159.340887,22.0252042],[-159.3409192,22.0253619],[-159.3409376,22.0254713],[-159.3409897,22.0255552],[-159.341028,22.025683],[-159.341146,22.0256972],[-159.3411307,22.0256134],[-159.3411092,22.0254429],[-159.341123,22.0253818],[-159.3411089,22.0253183],[-159.3410924,22.025244],[-159.3410648,22.0251261],[-159.3410096,22.0250422],[-159.3409897,22.0249641],[-159.3409866,22.0249328],[-159.3408885,22.0248661],[-159.3408012,22.0249769],[-159.3408242,22.0250422]]]},"properties":{"course_id":"wailua_kapaa","course_name":"Wailua Golf Course","hole_number":null,"feature_type":"tee_box","name":"unassigned_tee_box","feature-color":"#8b7355","is_approximate":true,"source":"osm","@id":"d5604dd1-eaba-416d-8e34-31ca3b607be2","osm_id":1302287741,"needs_hole_assignment":true}},{"type":"Feature","bbox":[-159.34088680722306,22.024702903718612,-159.34088680722306,22.024702903718612],"geometry":{"type":"Point","coordinates":[-159.34088680722306,22.024702903718612]},"properties":{"course_id":"wailua_kapaa","course_name":"Wailua Golf Course","hole_number":1,"feature_type":"tee_center","name":"hole_1_tee_center","feature-color":"#c8a055","is_approximate":true,"source":"derived","@id":"a4ff02ee-a16d-4332-8df3-34017903db30"}},{"type":"Feature","bbox":[-159.33892124434368,22.021135219466352,-159.33892124434368,22.021135219466352],"geometry":{"type":"Point","coordinates":[-159.33892124434368,22.021135219466352]},"properties":{"course_id":"wailua_kapaa","course_name":"Wailua Golf Course","hole_number":1,"feature_type":"green_center","name":"hole_1_green_center","feature-color":"#5aae5a","is_approximate":true,"source":"derived","@id":"76a4ebe2-0303-44d7-b036-d3fa38d24ac8"}},{"type":"Feature","bbox":[-159.3389759915334,22.021239002431898,-159.3389759915334,22.021239002431898],"geometry":{"type":"Point","coordinates":[-159.3389759915334,22.021239002431898]},"properties":{"course_id":"wailua_kapaa","course_name":"Wailua Golf Course","hole_number":1,"feature_type":"green_front","name":"hole_1_green_front","feature-color":"#5aae5a","is_approximate":true,"source":"derived","@id":"3d4ea875-70ff-4303-9909-ac855b859b9a"}},{"type":"Feature","bbox":[-159.338870240646,22.021038532950985,-159.338870240646,22.021038532950985],"geometry":{"type":"Point","coordinates":[-159.338870240646,22.021038532950985]},"properties":{"course_id":"wailua_kapaa","course_name":"Wailua Golf Course","hole_number":1,"feature_type":"green_back","name":"hole_1_green_back","feature-color":"#5aae5a","is_approximate":true,"source":"derived","@id":"ec8619ab-58b4-45db-ac80-091289cbba8f"}},{"type":"Feature","bbox":[-159.33877845657938,22.019697622702765,-159.33877845657938,22.019697622702765],"geometry":{"type":"Point","coordinates":[-159.33877845657938,22.019697622702765]},"properties":{"course_id":"wailua_kapaa","course_name":"Wailua Golf Course","hole_number":2,"feature_type":"tee_center","name":"hole_2_tee_center","feature-color":"#c8a055","is_approximate":true,"source":"derived","@id":"e2283b38-7d6e-4a24-95a8-ee6b07e1f005"}},{"type":"Feature","bbox":[-159.338320238834,22.015621571149417,-159.338320238834,22.015621571149417],"geometry":{"type":"Point","coordinates":[-159.338320238834,22.015621571149417]},"properties":{"course_id":"wailua_kapaa","course_name":"Wailua Golf Course","hole_number":3,"feature_type":"tee_center","name":"hole_3_tee_center","feature-color":"#c8a055","is_approximate":true,"source":"derived","@id":"d99a9e51-4099-40d5-ba4e-3846dabba87f"}},{"type":"Feature","bbox":[-159.34008023468783,22.01467412894633,-159.34008023468783,22.01467412894633],"geometry":{"type":"Point","coordinates":[-159.34008023468783,22.01467412894633]},"properties":{"course_id":"wailua_kapaa","course_name":"Wailua Golf Course","hole_number":3,"feature_type":"green_center","name":"hole_3_green_center","feature-color":"#5aae5a","is_approximate":true,"source":"derived","@id":"d7473006-3d3a-4a7b-b7a6-44fd28adfbb3"}},{"type":"Feature","bbox":[-159.3399372486544,22.014753751103747,-159.3399372486544,22.014753751103747],"geometry":{"type":"Point","coordinates":[-159.3399372486544,22.014753751103747]},"properties":{"course_id":"wailua_kapaa","course_name":"Wailua Golf Course","hole_number":3,"feature_type":"green_front","name":"hole_3_green_front","feature-color":"#5aae5a","is_approximate":true,"source":"derived","@id":"0dfa09ac-fa93-4d62-a693-5d9b447f4380"}},{"type":"Feature","bbox":[-159.34018806131647,22.014614085398062,-159.34018806131647,22.014614085398062],"geometry":{"type":"Point","coordinates":[-159.34018806131647,22.014614085398062]},"properties":{"course_id":"wailua_kapaa","course_name":"Wailua Golf Course","hole_number":3,"feature_type":"green_back","name":"hole_3_green_back","feature-color":"#5aae5a","is_approximate":true,"source":"derived","@id":"b36c0242-75ae-4d3a-ae97-307597d85644"}},{"type":"Feature","bbox":[-159.3405535499747,22.014658408812707,-159.3405535499747,22.014658408812707],"geometry":{"type":"Point","coordinates":[-159.3405535499747,22.014658408812707]},"properties":{"course_id":"wailua_kapaa","course_name":"Wailua Golf Course","hole_number":4,"feature_type":"tee_center","name":"hole_4_tee_center","feature-color":"#c8a055","is_approximate":true,"source":"derived","@id":"3f4dee1a-a5ac-4c2b-84b8-c9ded61c0da2"}},{"type":"Feature","bbox":[-159.3424319363628,22.017894145664894,-159.3424319363628,22.017894145664894],"geometry":{"type":"Point","coordinates":[-159.3424319363628,22.017894145664894]},"properties":{"course_id":"wailua_kapaa","course_name":"Wailua Golf Course","hole_number":4,"feature_type":"green_center","name":"hole_4_green_center","feature-color":"#5aae5a","is_approximate":true,"source":"derived","@id":"2aba78a3-a527-470c-9715-01bde83b69d5"}},{"type":"Feature","bbox":[-159.34237851535693,22.01773634400363,-159.34237851535693,22.01773634400363],"geometry":{"type":"Point","coordinates":[-159.34237851535693,22.01773634400363]},"properties":{"course_id":"wailua_kapaa","course_name":"Wailua Golf Course","hole_number":4,"feature_type":"green_front","name":"hole_4_green_front","feature-color":"#5aae5a","is_approximate":true,"source":"derived","@id":"3d0f568e-42eb-4bd2-b45a-5353983c51a0"}},{"type":"Feature","bbox":[-159.3424755219846,22.0180228943363,-159.3424755219846,22.0180228943363],"geometry":{"type":"Point","coordinates":[-159.3424755219846,22.0180228943363]},"properties":{"course_id":"wailua_kapaa","course_name":"Wailua Golf Course","hole_number":4,"feature_type":"green_back","name":"hole_4_green_back","feature-color":"#5aae5a","is_approximate":true,"source":"derived","@id":"3eeb869e-e679-4511-a113-d967017c61be"}},{"type":"Feature","bbox":[-159.34237390662287,22.01867223827583,-159.34237390662287,22.01867223827583],"geometry":{"type":"Point","coordinates":[-159.34237390662287,22.01867223827583]},"properties":{"course_id":"wailua_kapaa","course_name":"Wailua Golf Course","hole_number":5,"feature_type":"tee_center","name":"hole_5_tee_center","feature-color":"#c8a055","is_approximate":true,"source":"derived","@id":"645ed2a1-56b2-447e-82b3-21c46f5fa1de"}},{"type":"Feature","bbox":[-159.34004603705137,22.01617900070752,-159.34004603705137,22.01617900070752],"geometry":{"type":"Point","coordinates":[-159.34004603705137,22.01617900070752]},"properties":{"course_id":"wailua_kapaa","course_name":"Wailua Golf Course","hole_number":5,"feature_type":"green_center","name":"hole_5_green_center","feature-color":"#5aae5a","is_approximate":true,"source":"derived","@id":"d41f63f8-9b61-4c90-b43d-f6471899c896"}},{"type":"Feature","bbox":[-159.34008084897116,22.016225096711803,-159.34008084897116,22.016225096711803],"geometry":{"type":"Point","coordinates":[-159.34008084897116,22.016225096711803]},"properties":{"course_id":"wailua_kapaa","course_name":"Wailua Golf Course","hole_number":5,"feature_type":"green_front","name":"hole_5_green_front","feature-color":"#5aae5a","is_approximate":true,"source":"derived","@id":"c0fb0e20-79bf-447b-a822-f9663bfe1abb"}},{"type":"Feature","bbox":[-159.33999524943022,22.016111750569774,-159.33999524943022,22.016111750569774],"geometry":{"type":"Point","coordinates":[-159.33999524943022,22.016111750569774]},"properties":{"course_id":"wailua_kapaa","course_name":"Wailua Golf Course","hole_number":5,"feature_type":"green_back","name":"hole_5_green_back","feature-color":"#5aae5a","is_approximate":true,"source":"derived","@id":"a6094460-ee50-447d-8b69-f83e6c19ae27"}},{"type":"Feature","bbox":[-159.3396746318971,22.0171205105315,-159.3396746318971,22.0171205105315],"geometry":{"type":"Point","coordinates":[-159.3396746318971,22.0171205105315]},"properties":{"course_id":"wailua_kapaa","course_name":"Wailua Golf Course","hole_number":6,"feature_type":"tee_center","name":"hole_6_tee_center","feature-color":"#c8a055","is_approximate":true,"source":"derived","@id":"feb222e7-bc74-4a8e-8708-b721051714c3"}},{"type":"Feature","bbox":[-159.3413271863633,22.020245051451795,-159.3413271863633,22.020245051451795],"geometry":{"type":"Point","coordinates":[-159.3413271863633,22.020245051451795]},"properties":{"course_id":"wailua_kapaa","course_name":"Wailua Golf Course","hole_number":6,"feature_type":"green_center","name":"hole_6_green_center","feature-color":"#5aae5a","is_approximate":true,"source":"derived","@id":"370443c4-60be-4bf0-a5a5-5410d423d878"}},{"type":"Feature","bbox":[-159.34126740907675,22.020145873294688,-159.34126740907675,22.020145873294688],"geometry":{"type":"Point","coordinates":[-159.34126740907675,22.020145873294688]},"properties":{"course_id":"wailua_kapaa","course_name":"Wailua Golf Course","hole_number":6,"feature_type":"green_front","name":"hole_6_green_front","feature-color":"#5aae5a","is_approximate":true,"source":"derived","@id":"9d812f88-7caf-43bf-b12c-2d9b34fb5952"}},{"type":"Feature","bbox":[-159.34138259280203,22.02033697781389,-159.34138259280203,22.02033697781389],"geometry":{"type":"Point","coordinates":[-159.34138259280203,22.02033697781389]},"properties":{"course_id":"wailua_kapaa","course_name":"Wailua Golf Course","hole_number":6,"feature_type":"green_back","name":"hole_6_green_back","feature-color":"#5aae5a","is_approximate":true,"source":"derived","@id":"d43b11b7-b979-4470-a420-f20f925f7f81"}},{"type":"Feature","bbox":[-159.3411462364729,22.021031277375457,-159.3411462364729,22.021031277375457],"geometry":{"type":"Point","coordinates":[-159.3411462364729,22.021031277375457]},"properties":{"course_id":"wailua_kapaa","course_name":"Wailua Golf Course","hole_number":7,"feature_type":"tee_center","name":"hole_7_tee_center","feature-color":"#c8a055","is_approximate":true,"source":"derived","@id":"507c22ab-dd50-4222-ab1c-baa09757f088"}},{"type":"Feature","bbox":[-159.34111404216446,22.022300428028004,-159.34111404216446,22.022300428028004],"geometry":{"type":"Point","coordinates":[-159.34111404216446,22.022300428028004]},"properties":{"course_id":"wailua_kapaa","course_name":"Wailua Golf Course","hole_number":7,"feature_type":"green_center","name":"hole_7_green_center","feature-color":"#5aae5a","is_approximate":true,"source":"derived","@id":"d8415182-f528-40e2-b4a5-d3ca3261e465"}},{"type":"Feature","bbox":[-159.34112485625786,22.02217841411787,-159.34112485625786,22.02217841411787],"geometry":{"type":"Point","coordinates":[-159.34112485625786,22.02217841411787]},"properties":{"course_id":"wailua_kapaa","course_name":"Wailua Golf Course","hole_number":7,"feature_type":"green_front","name":"hole_7_green_front","feature-color":"#5aae5a","is_approximate":true,"source":"derived","@id":"71b5a4c5-a92f-4657-89b4-d2b640f25fb0"}},{"type":"Feature","bbox":[-159.34110037696425,22.02245461057929,-159.34110037696425,22.02245461057929],"geometry":{"type":"Point","coordinates":[-159.34110037696425,22.02245461057929]},"properties":{"course_id":"wailua_kapaa","course_name":"Wailua Golf Course","hole_number":7,"feature_type":"green_back","name":"hole_7_green_back","feature-color":"#5aae5a","is_approximate":true,"source":"derived","@id":"e121971e-e8ee-4bf0-ae0e-da463eb6279f"}},{"type":"Feature","bbox":[-159.34061251303612,22.022940237829438,-159.34061251303612,22.022940237829438],"geometry":{"type":"Point","coordinates":[-159.34061251303612,22.022940237829438]},"properties":{"course_id":"wailua_kapaa","course_name":"Wailua Golf Course","hole_number":8,"feature_type":"tee_center","name":"hole_8_tee_center","feature-color":"#c8a055","is_approximate":true,"source":"derived","@id":"e4b1377c-3fcc-4f22-8c80-58695f14dfd0"}},{"type":"Feature","bbox":[-159.33982140582688,22.019749854324644,-159.33982140582688,22.019749854324644],"geometry":{"type":"Point","coordinates":[-159.33982140582688,22.019749854324644]},"properties":{"course_id":"wailua_kapaa","course_name":"Wailua Golf Course","hole_number":8,"feature_type":"green_center","name":"hole_8_green_center","feature-color":"#5aae5a","is_approximate":true,"source":"derived","@id":"b2912398-fd1a-4283-ac97-9e2bbdc8e79a"}},{"type":"Feature","bbox":[-159.339872281077,22.01981456795025,-159.339872281077,22.01981456795025],"geometry":{"type":"Point","coordinates":[-159.339872281077,22.01981456795025]},"properties":{"course_id":"wailua_kapaa","course_name":"Wailua Golf Course","hole_number":8,"feature_type":"green_front","name":"hole_8_green_front","feature-color":"#5aae5a","is_approximate":true,"source":"derived","@id":"c6999a92-584c-4cee-ad2b-6485e121b2e6"}},{"type":"Feature","bbox":[-159.33975085612747,22.01970858387206,-159.33975085612747,22.01970858387206],"geometry":{"type":"Point","coordinates":[-159.33975085612747,22.01970858387206]},"properties":{"course_id":"wailua_kapaa","course_name":"Wailua Golf Course","hole_number":8,"feature_type":"green_back","name":"hole_8_green_back","feature-color":"#5aae5a","is_approximate":true,"source":"derived","@id":"136dbd2a-f009-4eac-b7d7-0eb35a3d2cec"}},{"type":"Feature","bbox":[-159.33939034653673,22.02083586807184,-159.33939034653673,22.02083586807184],"geometry":{"type":"Point","coordinates":[-159.33939034653673,22.02083586807184]},"properties":{"course_id":"wailua_kapaa","course_name":"Wailua Golf Course","hole_number":9,"feature_type":"tee_center","name":"hole_9_tee_center","feature-color":"#c8a055","is_approximate":true,"source":"derived","@id":"a2e77c01-91a1-4477-83cb-6131467b9293"}},{"type":"Feature","bbox":[-159.3413667008672,22.024333392693435,-159.3413667008672,22.024333392693435],"geometry":{"type":"Point","coordinates":[-159.3413667008672,22.024333392693435]},"properties":{"course_id":"wailua_kapaa","course_name":"Wailua Golf Course","hole_number":9,"feature_type":"green_center","name":"hole_9_green_center","feature-color":"#5aae5a","is_approximate":true,"source":"derived","@id":"170b6a99-f608-4783-a5f0-7b6f51ddafbe"}},{"type":"Feature","bbox":[-159.3413312742549,22.024271758251345,-159.3413312742549,22.024271758251345],"geometry":{"type":"Point","coordinates":[-159.3413312742549,22.024271758251345]},"properties":{"course_id":"wailua_kapaa","course_name":"Wailua Golf Course","hole_number":9,"feature_type":"green_front","name":"hole_9_green_front","feature-color":"#5aae5a","is_approximate":true,"source":"derived","@id":"a1a2d82f-4c7c-4efa-b899-ad325b62f91b"}},{"type":"Feature","bbox":[-159.3414288664518,22.02439244520744,-159.3414288664518,22.02439244520744],"geometry":{"type":"Point","coordinates":[-159.3414288664518,22.02439244520744]},"properties":{"course_id":"wailua_kapaa","course_name":"Wailua Golf Course","hole_number":9,"feature_type":"green_back","name":"hole_9_green_back","feature-color":"#5aae5a","is_approximate":true,"source":"derived","@id":"e264199c-f871-4d88-88c8-e3412f0214cf"}},{"type":"Feature","bbox":[-159.34000496659388,22.021321764755328,-159.3389019607547,22.024065523347986],"geometry":{"coordinates":[[[-159.3397822453614,22.024065523347986],[-159.33928662411805,22.023552015014772],[-159.33919333070756,22.023346611160378],[-159.33898393490207,22.02211320075112],[-159.3389019607547,22.021406661841027],[-159.33894266220338,22.021345347284353],[-159.3390113458981,22.021321764755328],[-159.3390914768752,22.021372467187604],[-159.33914871328741,22.021429065230123],[-159.3391970462577,22.02174978704508],[-159.3393738251068,22.022846269000652],[-159.33953271387276,22.023414991584644],[-159.33981959636685,22.02375458743377],[-159.34000496659388,22.02392643080644],[-159.33993434936457,22.024053267447286],[-159.3397822453614,22.024065523347986]]],"type":"Polygon"},"properties":{"course_id":"","course_name":"","hole_number":1,"feature_type":"fairway","name":"hole_1_fairway","feature-color":"#4a7c3f","is_approximate":false,"source":"user_draw","@id":"78d9349a-3da9-4cb0-9aed-29c20c7ae964"}},{"type":"Feature","bbox":[-159.33920235070445,22.02119040464264,-159.33907405569636,22.02132590046355],"geometry":{"coordinates":[[[-159.33912602329457,22.02132590046355],[-159.33908055164608,22.021292779274503],[-159.33907405569636,22.021235569930667],[-159.3391097834201,22.02119040464264],[-159.33917311893046,22.021206965250073],[-159.33920235070445,22.02126266909626],[-159.33918611083,22.021321383937746],[-159.33912602329457,22.02132590046355]]],"type":"Polygon"},"properties":{"course_id":"","course_name":"","hole_number":1,"feature_type":"bunker","name":"hole_1_bunker","feature-color":"#c8b560","is_approximate":false,"source":"user_draw","@id":"ce387880-cfd8-418c-8bc8-4a91874f901e"}},{"type":"Feature","bbox":[-159.33891977688918,22.02119492117174,-159.33876387409458,22.021384615278862],"geometry":{"coordinates":[[[-159.33889054511516,22.021384615278862],[-159.33891977688918,22.021342461055156],[-159.33891165695195,22.021289768257475],[-159.33884507346679,22.02121148177865],[-159.33878011396905,22.02119492117174],[-159.33876387409458,22.02123707544017],[-159.33878336194385,22.021276218677926],[-159.3388158416928,22.021297295801205],[-159.33883208156726,22.02136052715221],[-159.33889054511516,22.021384615278862]]],"type":"Polygon"},"properties":{"course_id":"","course_name":"","hole_number":1,"feature_type":"bunker","name":"hole_1_bunker_3","feature-color":"#c8b560","is_approximate":false,"source":"user_draw","@id":"10920c4b-9d74-4a58-bda0-64ef48a791c9"}},{"type":"Feature","bbox":[-159.33934065613587,22.016304891410627,-159.33864384263285,22.019001213251215],"geometry":{"coordinates":[[[-159.33895286427332,22.018883250244002],[-159.33905587148683,22.018299051046313],[-159.33911040471745,22.01791145601878],[-159.33906798998254,22.0175744160028],[-159.33864384263285,22.016383534857695],[-159.33871655360707,22.016304891410627],[-159.33883167931629,22.01632174358184],[-159.3388983310426,22.0163666826939],[-159.33923764892236,22.017366574259782],[-159.33934065613587,22.017799109436424],[-159.33932247839226,22.018293433734826],[-159.33921947117875,22.018821460058263],[-159.33916493794814,22.018989978683635],[-159.33901951599972,22.019001213251215],[-159.33895286427332,22.018883250244002]]],"type":"Polygon"},"properties":{"course_id":"","course_name":"","hole_number":2,"feature_type":"fairway","name":"hole_2_bunker_3","feature-color":"#4a7c3f","is_approximate":false,"source":"user_draw","@id":"cf975a6f-4727-4094-b9ab-0be270c564fe"}},{"type":"Feature","bbox":[-159.338652880585,22.016237112948303,-159.33854713821486,22.016357340072375],"geometry":{"coordinates":[[[-159.33860300210844,22.016357340072375],[-159.33856309932733,22.01632959536046],[-159.33854713821486,22.016264857678266],[-159.33858504585697,22.016237112948303],[-159.3386289389162,22.016257459084386],[-159.338652880585,22.016324046416827],[-159.33860300210844,22.016357340072375]]],"type":"Polygon"},"properties":{"course_id":"","course_name":"","hole_number":2,"feature_type":"bunker","name":"hole_2_bunker_4","feature-color":"#c8b560","is_approximate":false,"source":"user_draw","@id":"f9881463-9efd-4ee5-982a-a61b12ab299b"}},{"type":"Feature","bbox":[-159.33888094822655,22.016160442618954,-159.33879416321173,22.016257837286446],"geometry":{"coordinates":[[[-159.33883869762718,22.016257837286446],[-159.3387953051198,22.01622713680021],[-159.33879416321173,22.016169970361574],[-159.3388238528221,22.016160442618954],[-159.33886838723757,22.016175263551304],[-159.33888094822655,22.016223960887743],[-159.33887409677803,22.01625466137466],[-159.33883869762718,22.016257837286446]]],"type":"Polygon"},"properties":{"course_id":"","course_name":"","hole_number":2,"feature_type":"bunker","name":"hole_2_bunker","feature-color":"#c8b560","is_approximate":false,"source":"user_draw","@id":"7500a4e7-fc10-413c-88cc-5e957ff8bd1e"}},{"type":"Feature","bbox":[-159.33880718453736,22.016021141720444,-159.33853327324542,22.016268534151592],"geometry":{"coordinates":[[[-159.33872529353252,22.016268534151592],[-159.3386758765469,22.01626329833755],[-159.33863351913064,22.016225338678396],[-159.33857845448944,22.016188687964203],[-159.33853327324542,22.016142874557758],[-159.33853750898703,22.016093134271472],[-159.33857139492005,22.016040776056144],[-159.3386222238196,22.016021141720444],[-159.33869987908284,22.016040776056144],[-159.33877471051827,22.01606957307726],[-159.33880718453736,22.016131093965285],[-159.33878035817372,22.016179525284542],[-159.33876059137947,22.016239737170935],[-159.3387507079823,22.016260680430094],[-159.33872529353252,22.016268534151592]]],"type":"Polygon"},"properties":{"course_id":"","course_name":"","hole_number":2,"feature_type":"green","name":"hole_2_green","feature-color":"#2d6e2d","is_approximate":false,"source":"user_draw","@id":"a35ac6a5-14ac-44d0-945f-67b997172b0d"}},{"type":"Feature","bbox":[-159.34056861957137,22.019837004040795,-159.3399234173588,22.02202686190556],"geometry":{"coordinates":[[[-159.34034999733404,22.022002145865684],[-159.34021669109177,22.021483108032783],[-159.34016870084452,22.021112365559418],[-159.34019002984326,22.020741622115807],[-159.34014203959612,22.020529062103847],[-159.33998740435507,22.02015337386034],[-159.3399234173588,22.019935869685455],[-159.34001406560355,22.019837004040795],[-159.34009938159858,22.019841947324537],[-159.34032333608556,22.020232466204803],[-159.34039265533156,22.020697132837128],[-159.34040865208058,22.02089486285695],[-159.34041931657995,22.02131998146416],[-159.34049396807572,22.02168083695551],[-159.34056861957137,22.02195271377299],[-159.34050996482472,22.022021918698073],[-159.34041931657995,22.02202686190556],[-159.34034999733404,22.022002145865684]]],"type":"Polygon"},"properties":{"course_id":"","course_name":"","hole_number":8,"feature_type":"fairway","name":"hole_8_fairway","feature-color":"#4a7c3f","is_approximate":false,"source":"user_draw","@id":"aed9df0a-f2aa-4ed3-a606-073450736614"}},{"type":"Feature","bbox":[-159.33993421010527,22.019645982620574,-159.33970480757728,22.01985314532112],"geometry":{"coordinates":[[[-159.33991045320917,22.019782255793274],[-159.33987927228304,22.019815979941583],[-159.33981913763978,22.019835939128214],[-159.3397649422205,22.01985314532112],[-159.3397233676524,22.019848327587198],[-159.33970480757728,22.019809097462897],[-159.3397218828463,22.019744402147268],[-159.33976865423554,22.019687965783405],[-159.33981245601274,22.019645982620574],[-159.33987778747706,22.019646670868923],[-159.33990302917914,22.019665253582076],[-159.33993421010527,22.019712054478006],[-159.3399290132843,22.019756102366358],[-159.33991045320917,22.019782255793274]]],"type":"Polygon"},"properties":{"course_id":"","course_name":"","hole_number":8,"feature_type":"green","name":"hole_8_green","feature-color":"#2d6e2d","is_approximate":false,"source":"user_draw","@id":"bc69f162-aa57-4577-ab5b-8bf4ccf98838"}},{"type":"Feature","bbox":[-159.3399018781403,22.019850921644093,-159.3397369636807,22.019967962446685],"geometry":{"coordinates":[[[-159.3398924093675,22.019923340651616],[-159.3398632139847,22.01992772968171],[-159.3398087685411,22.019964304923064],[-159.3397827294159,22.019967962446685],[-159.33975669029073,22.01995918438972],[-159.3397369636807,22.01992846118631],[-159.3397669481279,22.01989700647148],[-159.33981665918512,22.01986628325463],[-159.33986163585595,22.019850921644093],[-159.3398971437539,22.01985750519131],[-159.3399018781403,22.019894080450825],[-159.3398924093675,22.019923340651616]]],"type":"Polygon"},"properties":{"course_id":"","course_name":"","hole_number":8,"feature_type":"bunker","name":"hole_8_bunker","feature-color":"#c8b560","is_approximate":false,"source":"user_draw","@id":"4b81c124-ee49-476b-b17f-2c757fe22f6e"}},{"type":"Feature","bbox":[-159.3414750497135,22.02411041574632,-159.3413183229036,22.02422633000451],"geometry":{"coordinates":[[[-159.34145278251646,22.02422633000451],[-159.3413834116334,22.024219184607404],[-159.34134572868456,22.024196954482065],[-159.3413183229036,22.02417948795309],[-159.34132089219548,22.02413820341971],[-159.3413465851152,22.02411041574632],[-159.3413859809254,22.02411676721485],[-159.3414262331661,22.024128676217828],[-159.34146391611503,22.024164403220837],[-159.3414750497135,22.024203305946628],[-159.34145278251646,22.02422633000451]]],"type":"Polygon"},"properties":{"course_id":"","course_name":"","hole_number":9,"feature_type":"bunker","name":"hole_9_bunker_3","feature-color":"#c8b560","is_approximate":false,"source":"user_draw","@id":"e967d9db-1438-48e8-9096-de6e7cd204bd"}},{"type":"Feature","bbox":[-159.34130884371564,22.024224265979996,-159.34116960134335,22.02436058532787],"geometry":{"coordinates":[[[-159.34126199581462,22.024335251653483],[-159.3412932277486,22.024301473414397],[-159.34130884371564,22.024271314265306],[-159.3412815157734,22.024230297812338],[-159.34124117452532,22.024224265979996],[-159.34120343593844,22.02424356784273],[-159.34116960134335,22.024276139729423],[-159.3411709026739,22.024328013460575],[-159.341180011988,22.024354553501055],[-159.341220353236,22.02436058532787],[-159.34126199581462,22.024335251653483]]],"type":"Polygon"},"properties":{"course_id":"","course_name":"","hole_number":9,"feature_type":"bunker","name":"hole_9_bunker","feature-color":"#c8b560","is_approximate":false,"source":"user_draw","@id":"bcd4630b-7b86-47cc-aaad-2cba4ac4ac94"}},{"type":"Feature","bbox":[-159.34149020030438,22.024239841869175,-159.34127426911502,22.024429539443275],"geometry":{"coordinates":[[[-159.34146792232295,22.024381977885753],[-159.34149020030438,22.024332169554015],[-159.341460059506,22.024278716691],[-159.34140501978732,22.024244701222372],[-159.34134604866014,22.024239841869175],[-159.34133163349574,22.024279931529165],[-159.34129362254373,22.02432531019288],[-159.34127426911502,22.024359483726002],[-159.34128348503347,22.02439023989932],[-159.3413074464214,22.024414161362202],[-159.34133785895222,22.02442783076748],[-159.3413885465036,22.024429539443275],[-159.34142080221818,22.024418433051636],[-159.34146792232295,22.024381977885753]]],"type":"Polygon"},"properties":{"course_id":"","course_name":"","hole_number":9,"feature_type":"green","name":"hole_9_green","feature-color":"#2d6e2d","is_approximate":false,"source":"user_draw","@id":"3b5818bb-edb2-49d8-9ce7-b097bd7c5f8d"}}]}